{"type":"FeatureCollection","name":"Jardines y áreas verdes CIMARI","features":[{"type":"Feature","id":"0","properties":{"FID":0,"FID_jardin":0,"Nombre":"jardin_comedor","FID_jard_1":-1,"Nombre_1":"","FID_costad":-1,"Nombre_12":"","FID_cost_1":-1,"Nombre__13":"","FID_jard_2":-1,"Nombre__14":"","FID_jard_3":-1,"Nombre__15":"","FID_jard_4":-1,"Nombre__16":"","FID_Patio_":-1,"Nombre__17":"","FID_Planta":-1,"Nombre__18":"","FID_jard_5":-1,"Nombre__19":"","FID_Empedr":-1,"Nombre__20":"","FID_Jard_6":-1,"Nombre__21":"","FID_Jard_7":-1,"Nombre__22":"","FID_Jard_8":-1,"Nombre__23":"","FID_jard_9":-1,"Nombre__24":"","FID_jar_10":-1,"Nombre__25":"","Turno":1,"KML_Name":"jardin_comedor","NombreFinal":"jardin_comedor"},"geometry":{"type":"Polygon","coordinates":[[[-101.4105808349251,26.224220226213],[-101.4106493090077,26.22433751432909],[-101.4107617876113,26.22427317844401],[-101.4106924586962,26.22415303352788],[-101.4105808349251,26.224220226213]]]}},{"type":"Feature","id":"1","properties":{"FID":1,"FID_jardin":1,"Nombre":"jardin_comedor","FID_jard_1":-1,"Nombre_1":"","FID_costad":-1,"Nombre_12":"","FID_cost_1":-1,"Nombre__13":"","FID_jard_2":-1,"Nombre__14":"","FID_jard_3":-1,"Nombre__15":"","FID_jard_4":-1,"Nombre__16":"","FID_Patio_":-1,"Nombre__17":"","FID_Planta":-1,"Nombre__18":"","FID_jard_5":-1,"Nombre__19":"","FID_Empedr":-1,"Nombre__20":"","FID_Jard_6":-1,"Nombre__21":"","FID_Jard_7":-1,"Nombre__22":"","FID_Jard_8":-1,"Nombre__23":"","FID_jard_9":-1,"Nombre__24":"","FID_jar_10":-1,"Nombre__25":"","Turno":1,"KML_Name":"jardin_comedor","NombreFinal":"jardin_comedor"},"geometry":{"type":"Polygon","coordinates":[[[-101.4105534564536,26.22416613276715],[-101.4105598837821,26.22420765733228],[-101.410821081569,26.224061150323],[-101.4107997752173,26.22403136023775],[-101.4105534564536,26.22416613276715]]]}},{"type":"Feature","id":"2","properties":{"FID":2,"FID_jardin":2,"Nombre":"jardin_comedor","FID_jard_1":-1,"Nombre_1":"","FID_costad":-1,"Nombre_12":"","FID_cost_1":-1,"Nombre__13":"","FID_jard_2":-1,"Nombre__14":"","FID_jard_3":-1,"Nombre__15":"","FID_jard_4":-1,"Nombre__16":"","FID_Patio_":-1,"Nombre__17":"","FID_Planta":-1,"Nombre__18":"","FID_jard_5":-1,"Nombre__19":"","FID_Empedr":-1,"Nombre__20":"","FID_Jard_6":-1,"Nombre__21":"","FID_Jard_7":-1,"Nombre__22":"","FID_Jard_8":-1,"Nombre__23":"","FID_jard_9":-1,"Nombre__24":"","FID_jar_10":-1,"Nombre__25":"","Turno":1,"KML_Name":"jardin_comedor","NombreFinal":"jardin_comedor"},"geometry":{"type":"Polygon","coordinates":[[[-101.410840112273,26.22401919859292],[-101.4108598571017,26.22405045047405],[-101.4109826480626,26.22398450579264],[-101.4109661298818,26.22395535318364],[-101.410840112273,26.22401919859292]]]}},{"type":"Feature","id":"3","properties":{"FID":3,"FID_jardin":-1,"Nombre":"","FID_jard_1":0,"Nombre_1":"Jardin_Paneles_solares","FID_costad":-1,"Nombre_12":"","FID_cost_1":-1,"Nombre__13":"","FID_jard_2":-1,"Nombre__14":"","FID_jard_3":-1,"Nombre__15":"","FID_jard_4":-1,"Nombre__16":"","FID_Patio_":-1,"Nombre__17":"","FID_Planta":-1,"Nombre__18":"","FID_jard_5":-1,"Nombre__19":"","FID_Empedr":-1,"Nombre__20":"","FID_Jard_6":-1,"Nombre__21":"","FID_Jard_7":-1,"Nombre__22":"","FID_Jard_8":-1,"Nombre__23":"","FID_jard_9":-1,"Nombre__24":"","FID_jar_10":-1,"Nombre__25":"","Turno":3,"KML_Name":"","NombreFinal":"Jardin_Paneles_solares"},"geometry":{"type":"Polygon","coordinates":[[[-101.4107949830296,26.22445494262809],[-101.4110111007283,26.22478509299996],[-101.4110346193788,26.22438201260053],[-101.4110049131647,26.22433082951724],[-101.4107949830296,26.22445494262809]]]}},{"type":"Feature","id":"4","properties":{"FID":4,"FID_jardin":-1,"Nombre":"","FID_jard_1":-1,"Nombre_1":"","FID_costad":0,"Nombre_12":"Costado_vivero","FID_cost_1":-1,"Nombre__13":"","FID_jard_2":-1,"Nombre__14":"","FID_jard_3":-1,"Nombre__15":"","FID_jard_4":-1,"Nombre__16":"","FID_Patio_":-1,"Nombre__17":"","FID_Planta":-1,"Nombre__18":"","FID_jard_5":-1,"Nombre__19":"","FID_Empedr":-1,"Nombre__20":"","FID_Jard_6":-1,"Nombre__21":"","FID_Jard_7":-1,"Nombre__22":"","FID_Jard_8":-1,"Nombre__23":"","FID_jard_9":-1,"Nombre__24":"","FID_jar_10":-1,"Nombre__25":"","Turno":4,"KML_Name":"","NombreFinal":"Costado_vivero"},"geometry":{"type":"Polygon","coordinates":[[[-101.4109616420999,26.22477946277821],[-101.410974282424,26.22477494386039],[-101.4108408854984,26.22455825337816],[-101.4105996315287,26.22466853584676],[-101.4106228103036,26.22471193273902],[-101.4108448226427,26.22459479510829],[-101.4109616420999,26.22477946277821]]]}},{"type":"Feature","id":"5","properties":{"FID":5,"FID_jardin":-1,"Nombre":"","FID_jard_1":-1,"Nombre_1":"","FID_costad":-1,"Nombre_12":"","FID_cost_1":0,"Nombre__13":"costado_vivero_generador","FID_jard_2":-1,"Nombre__14":"","FID_jard_3":-1,"Nombre__15":"","FID_jard_4":-1,"Nombre__16":"","FID_Patio_":-1,"Nombre__17":"","FID_Planta":-1,"Nombre__18":"","FID_jard_5":-1,"Nombre__19":"","FID_Empedr":-1,"Nombre__20":"","FID_Jard_6":-1,"Nombre__21":"","FID_Jard_7":-1,"Nombre__22":"","FID_Jard_8":-1,"Nombre__23":"","FID_jard_9":-1,"Nombre__24":"","FID_jar_10":-1,"Nombre__25":"","Turno":5,"KML_Name":"","NombreFinal":"costado_vivero_generador"},"geometry":{"type":"Polygon","coordinates":[[[-101.4103893434355,26.22479854737903],[-101.4103067431452,26.22466770737293],[-101.410279134936,26.22467965533957],[-101.4103744844374,26.22482664031181],[-101.410401356292,26.22481757587978],[-101.4103967722597,26.22481031472168],[-101.410396434875,26.22481048044674],[-101.4103893434355,26.22479854737903]]]}},{"type":"Feature","id":"6","properties":{"FID":6,"FID_jardin":-1,"Nombre":"","FID_jard_1":-1,"Nombre_1":"","FID_costad":-1,"Nombre_12":"","FID_cost_1":1,"Nombre__13":"costado_vivero_generador","FID_jard_2":-1,"Nombre__14":"","FID_jard_3":-1,"Nombre__15":"","FID_jard_4":-1,"Nombre__16":"","FID_Patio_":-1,"Nombre__17":"","FID_Planta":-1,"Nombre__18":"","FID_jard_5":-1,"Nombre__19":"","FID_Empedr":-1,"Nombre__20":"","FID_Jard_6":-1,"Nombre__21":"","FID_Jard_7":-1,"Nombre__22":"","FID_Jard_8":-1,"Nombre__23":"","FID_jard_9":-1,"Nombre__24":"","FID_jar_10":-1,"Nombre__25":"","Turno":5,"KML_Name":"","NombreFinal":"costado_vivero_generador"},"geometry":{"type":"Polygon","coordinates":[[[-101.4103893434355,26.22479854737903],[-101.4103967722597,26.22481031472168],[-101.4105674015381,26.22472650061392],[-101.4105335991714,26.22466964375498],[-101.4104446616197,26.22471779292725],[-101.4104208797203,26.22468373752222],[-101.4103987073293,26.22468913411271],[-101.410357892903,26.22463957284961],[-101.4104666604949,26.22458821983408],[-101.410437705633,26.22453487061813],[-101.4102760640097,26.22460792684821],[-101.4103893434355,26.22479854737903]]]}},{"type":"Feature","id":"7","properties":{"FID":7,"FID_jardin":-1,"Nombre":"","FID_jard_1":-1,"Nombre_1":"","FID_costad":-1,"Nombre_12":"","FID_cost_1":-1,"Nombre__13":"","FID_jard_2":0,"Nombre__14":"jardin_laboratorio","FID_jard_3":-1,"Nombre__15":"","FID_jard_4":-1,"Nombre__16":"","FID_Patio_":-1,"Nombre__17":"","FID_Planta":-1,"Nombre__18":"","FID_jard_5":-1,"Nombre__19":"","FID_Empedr":-1,"Nombre__20":"","FID_Jard_6":-1,"Nombre__21":"","FID_Jard_7":-1,"Nombre__22":"","FID_Jard_8":-1,"Nombre__23":"","FID_jard_9":-1,"Nombre__24":"","FID_jar_10":-1,"Nombre__25":"","Turno":6,"KML_Name":"","NombreFinal":"jardin_laboratorio"},"geometry":{"type":"Polygon","coordinates":[[[-101.4103258086364,26.22435729787942],[-101.410436806472,26.22452986110325],[-101.4106082870821,26.22443223441926],[-101.410535827957,26.22423749074116],[-101.4103258086364,26.22435729787942]]]}},{"type":"Feature","id":"8","properties":{"FID":8,"FID_jardin":-1,"Nombre":"","FID_jard_1":-1,"Nombre_1":"","FID_costad":-1,"Nombre_12":"","FID_cost_1":-1,"Nombre__13":"","FID_jard_2":-1,"Nombre__14":"","FID_jard_3":0,"Nombre__15":"Jardin_65_caseta","FID_jard_4":-1,"Nombre__16":"","FID_Patio_":-1,"Nombre__17":"","FID_Planta":-1,"Nombre__18":"","FID_jard_5":-1,"Nombre__19":"","FID_Empedr":-1,"Nombre__20":"","FID_Jard_6":-1,"Nombre__21":"","FID_Jard_7":-1,"Nombre__22":"","FID_Jard_8":-1,"Nombre__23":"","FID_jard_9":-1,"Nombre__24":"","FID_jar_10":-1,"Nombre__25":"","Turno":7,"KML_Name":"","NombreFinal":"Jardin_65_caseta"},"geometry":{"type":"Polygon","coordinates":[[[-101.4101620197766,26.22463496303775],[-101.4102014797396,26.22469603188516],[-101.4102376764673,26.2246760440511],[-101.4101975393023,26.22462072897576],[-101.4101620197766,26.22463496303775]]]}},{"type":"Feature","id":"9","properties":{"FID":9,"FID_jardin":-1,"Nombre":"","FID_jard_1":-1,"Nombre_1":"","FID_costad":-1,"Nombre_12":"","FID_cost_1":-1,"Nombre__13":"","FID_jard_2":-1,"Nombre__14":"","FID_jard_3":1,"Nombre__15":"Jardin_65_caseta","FID_jard_4":-1,"Nombre__16":"","FID_Patio_":-1,"Nombre__17":"","FID_Planta":-1,"Nombre__18":"","FID_jard_5":-1,"Nombre__19":"","FID_Empedr":-1,"Nombre__20":"","FID_Jard_6":-1,"Nombre__21":"","FID_Jard_7":-1,"Nombre__22":"","FID_Jard_8":-1,"Nombre__23":"","FID_jard_9":-1,"Nombre__24":"","FID_jar_10":-1,"Nombre__25":"","Turno":7,"KML_Name":"","NombreFinal":"Jardin_65_caseta"},"geometry":{"type":"Polygon","coordinates":[[[-101.4101340277808,26.22447392757828],[-101.4102251475078,26.22460878102513],[-101.4102614921824,26.22459596870565],[-101.410170239253,26.22445465731656],[-101.4101340277808,26.22447392757828]]]}},{"type":"Feature","id":"10","properties":{"FID":10,"FID_jardin":-1,"Nombre":"","FID_jard_1":-1,"Nombre_1":"","FID_costad":-1,"Nombre_12":"","FID_cost_1":-1,"Nombre__13":"","FID_jard_2":-1,"Nombre__14":"","FID_jard_3":-1,"Nombre__15":"","FID_jard_4":0,"Nombre__16":"Jardin_corredor_65_y_caseta","FID_Patio_":-1,"Nombre__17":"","FID_Planta":-1,"Nombre__18":"","FID_jard_5":-1,"Nombre__19":"","FID_Empedr":-1,"Nombre__20":"","FID_Jard_6":-1,"Nombre__21":"","FID_Jard_7":-1,"Nombre__22":"","FID_Jard_8":-1,"Nombre__23":"","FID_jard_9":-1,"Nombre__24":"","FID_jar_10":-1,"Nombre__25":"","Turno":8,"KML_Name":"","NombreFinal":"Jardin_corredor_65_y_caseta"},"geometry":{"type":"Polygon","coordinates":[[[-101.4100985388893,26.22433526967136],[-101.4101329145593,26.22438135003156],[-101.4103505642652,26.2242456235497],[-101.4103583388381,26.22419811831172],[-101.4100985388893,26.22433526967136]]]}},{"type":"Feature","id":"11","properties":{"FID":11,"FID_jardin":-1,"Nombre":"","FID_jard_1":-1,"Nombre_1":"","FID_costad":-1,"Nombre_12":"","FID_cost_1":-1,"Nombre__13":"","FID_jard_2":-1,"Nombre__14":"","FID_jard_3":-1,"Nombre__15":"","FID_jard_4":1,"Nombre__16":"Jardin_corredor_65_y_caseta","FID_Patio_":-1,"Nombre__17":"","FID_Planta":-1,"Nombre__18":"","FID_jard_5":-1,"Nombre__19":"","FID_Empedr":-1,"Nombre__20":"","FID_Jard_6":-1,"Nombre__21":"","FID_Jard_7":-1,"Nombre__22":"","FID_Jard_8":-1,"Nombre__23":"","FID_jard_9":-1,"Nombre__24":"","FID_jar_10":-1,"Nombre__25":"","Turno":8,"KML_Name":"","NombreFinal":"Jardin_corredor_65_y_caseta"},"geometry":{"type":"Polygon","coordinates":[[[-101.4101416806136,26.22438192077991],[-101.4101805041936,26.22441213490892],[-101.4105282978701,26.22421967207836],[-101.4104937628897,26.22420445989357],[-101.4101416806136,26.22438192077991]]]}},{"type":"Feature","id":"12","properties":{"FID":12,"FID_jardin":-1,"Nombre":"","FID_jard_1":-1,"Nombre_1":"","FID_costad":-1,"Nombre_12":"","FID_cost_1":-1,"Nombre__13":"","FID_jard_2":-1,"Nombre__14":"","FID_jard_3":-1,"Nombre__15":"","FID_jard_4":-1,"Nombre__16":"","FID_Patio_":0,"Nombre__17":"Patio_de_maniobras","FID_Planta":-1,"Nombre__18":"","FID_jard_5":-1,"Nombre__19":"","FID_Empedr":-1,"Nombre__20":"","FID_Jard_6":-1,"Nombre__21":"","FID_Jard_7":-1,"Nombre__22":"","FID_Jard_8":-1,"Nombre__23":"","FID_jard_9":-1,"Nombre__24":"","FID_jar_10":-1,"Nombre__25":"","Turno":9,"KML_Name":"","NombreFinal":"Patio_de_maniobras"},"geometry":{"type":"Polygon","coordinates":[[[-101.4098854427883,26.22415149830093],[-101.4099963362092,26.2243190390643],[-101.4100571510954,26.22429648492855],[-101.4099452845025,26.22412034693596],[-101.4098854427883,26.22415149830093]]]}},{"type":"Feature","id":"13","properties":{"FID":13,"FID_jardin":-1,"Nombre":"","FID_jard_1":-1,"Nombre_1":"","FID_costad":-1,"Nombre_12":"","FID_cost_1":-1,"Nombre__13":"","FID_jard_2":-1,"Nombre__14":"","FID_jard_3":-1,"Nombre__15":"","FID_jard_4":-1,"Nombre__16":"","FID_Patio_":-1,"Nombre__17":"","FID_Planta":0,"Nombre__18":"Plantacion_66","FID_jard_5":-1,"Nombre__19":"","FID_Empedr":-1,"Nombre__20":"","FID_Jard_6":-1,"Nombre__21":"","FID_Jard_7":-1,"Nombre__22":"","FID_Jard_8":-1,"Nombre__23":"","FID_jard_9":-1,"Nombre__24":"","FID_jar_10":-1,"Nombre__25":"","Turno":10,"KML_Name":"","NombreFinal":"Plantacion_66"},"geometry":{"type":"Polygon","coordinates":[[[-101.4100811957023,26.22430469519154],[-101.4100969147149,26.22429510010624],[-101.4102410091694,26.22422018506082],[-101.4101886723217,26.22415215422738],[-101.4101498818823,26.22416213634954],[-101.4098595960027,26.22374709246947],[-101.4097116982264,26.22379192329208],[-101.4100811957023,26.22430469519154]]]}},{"type":"Feature","id":"14","properties":{"FID":14,"FID_jardin":-1,"Nombre":"","FID_jard_1":-1,"Nombre_1":"","FID_costad":-1,"Nombre_12":"","FID_cost_1":-1,"Nombre__13":"","FID_jard_2":-1,"Nombre__14":"","FID_jard_3":-1,"Nombre__15":"","FID_jard_4":-1,"Nombre__16":"","FID_Patio_":-1,"Nombre__17":"","FID_Planta":-1,"Nombre__18":"","FID_jard_5":0,"Nombre__19":"Jardin_66","FID_Empedr":-1,"Nombre__20":"","FID_Jard_6":-1,"Nombre__21":"","FID_Jard_7":-1,"Nombre__22":"","FID_Jard_8":-1,"Nombre__23":"","FID_jard_9":-1,"Nombre__24":"","FID_jar_10":-1,"Nombre__25":"","Turno":11,"KML_Name":"","NombreFinal":"Jardin_66"},"geometry":{"type":"Polygon","coordinates":[[[-101.4102503531441,26.22409441328194],[-101.4103580985426,26.22414787633519],[-101.4103730811353,26.22414116477681],[-101.4103173844148,26.22406457675773],[-101.4102503531441,26.22409441328194]]]}},{"type":"Feature","id":"15","properties":{"FID":15,"FID_jardin":-1,"Nombre":"","FID_jard_1":-1,"Nombre_1":"","FID_costad":-1,"Nombre_12":"","FID_cost_1":-1,"Nombre__13":"","FID_jard_2":-1,"Nombre__14":"","FID_jard_3":-1,"Nombre__15":"","FID_jard_4":-1,"Nombre__16":"","FID_Patio_":-1,"Nombre__17":"","FID_Planta":-1,"Nombre__18":"","FID_jard_5":1,"Nombre__19":"Jardin_66","FID_Empedr":-1,"Nombre__20":"","FID_Jard_6":-1,"Nombre__21":"","FID_Jard_7":-1,"Nombre__22":"","FID_Jard_8":-1,"Nombre__23":"","FID_jard_9":-1,"Nombre__24":"","FID_jar_10":-1,"Nombre__25":"","Turno":11,"KML_Name":"","NombreFinal":"Jardin_66"},"geometry":{"type":"Polygon","coordinates":[[[-101.4101860363619,26.22412964929869],[-101.4102375901413,26.22420875761527],[-101.4103290177062,26.22416559141201],[-101.4102244903235,26.22410660538244],[-101.4101860363619,26.22412964929869]]]}},{"type":"Feature","id":"16","properties":{"FID":16,"FID_jardin":-1,"Nombre":"","FID_jard_1":-1,"Nombre_1":"","FID_costad":-1,"Nombre_12":"","FID_cost_1":-1,"Nombre__13":"","FID_jard_2":-1,"Nombre__14":"","FID_jard_3":-1,"Nombre__15":"","FID_jard_4":-1,"Nombre__16":"","FID_Patio_":-1,"Nombre__17":"","FID_Planta":-1,"Nombre__18":"","FID_jard_5":-1,"Nombre__19":"","FID_Empedr":0,"Nombre__20":"Empedrado_66","FID_Jard_6":-1,"Nombre__21":"","FID_Jard_7":-1,"Nombre__22":"","FID_Jard_8":-1,"Nombre__23":"","FID_jard_9":-1,"Nombre__24":"","FID_jar_10":-1,"Nombre__25":"","Turno":12,"KML_Name":"","NombreFinal":"Empedrado_66"},"geometry":{"type":"Polygon","coordinates":[[[-101.4102244903235,26.22410660538244],[-101.4102471412821,26.2240930315631],[-101.4102332467153,26.22407531965062],[-101.4101703116235,26.22411082982395],[-101.410052861312,26.22393406777873],[-101.4101543499652,26.22387709472107],[-101.4102810695029,26.2240788241841],[-101.4103165740505,26.22406387255249],[-101.4101715678115,26.22382440647553],[-101.4099992180968,26.22391845819321],[-101.4101559504855,26.22414767854419],[-101.4101860363619,26.22412964929869],[-101.41018252627,26.22412426312299],[-101.4102203139665,26.22410424861217],[-101.4102244903235,26.22410660538244]]]}},{"type":"Feature","id":"17","properties":{"FID":17,"FID_jardin":-1,"Nombre":"","FID_jard_1":-1,"Nombre_1":"","FID_costad":-1,"Nombre_12":"","FID_cost_1":-1,"Nombre__13":"","FID_jard_2":-1,"Nombre__14":"","FID_jard_3":-1,"Nombre__15":"","FID_jard_4":-1,"Nombre__16":"","FID_Patio_":-1,"Nombre__17":"","FID_Planta":-1,"Nombre__18":"","FID_jard_5":-1,"Nombre__19":"","FID_Empedr":-1,"Nombre__20":"","FID_Jard_6":0,"Nombre__21":"Jardin_Insumos","FID_Jard_7":-1,"Nombre__22":"","FID_Jard_8":-1,"Nombre__23":"","FID_jard_9":-1,"Nombre__24":"","FID_jar_10":-1,"Nombre__25":"","Turno":13,"KML_Name":"","NombreFinal":"Jardin_Insumos"},"geometry":{"type":"Polygon","coordinates":[[[-101.4103269814183,26.22364234926827],[-101.4103659344447,26.22364026018157],[-101.4103689363624,26.22343850797503],[-101.4103346975875,26.22343764677161],[-101.4103269814183,26.22364234926827]]]}},{"type":"Feature","id":"18","properties":{"FID":18,"FID_jardin":-1,"Nombre":"","FID_jard_1":-1,"Nombre_1":"","FID_costad":-1,"Nombre_12":"","FID_cost_1":-1,"Nombre__13":"","FID_jard_2":-1,"Nombre__14":"","FID_jard_3":-1,"Nombre__15":"","FID_jard_4":-1,"Nombre__16":"","FID_Patio_":-1,"Nombre__17":"","FID_Planta":-1,"Nombre__18":"","FID_jard_5":-1,"Nombre__19":"","FID_Empedr":-1,"Nombre__20":"","FID_Jard_6":1,"Nombre__21":"Jardin_Insumos","FID_Jard_7":-1,"Nombre__22":"","FID_Jard_8":-1,"Nombre__23":"","FID_jard_9":-1,"Nombre__24":"","FID_jar_10":-1,"Nombre__25":"","Turno":13,"KML_Name":"","NombreFinal":"Jardin_Insumos"},"geometry":{"type":"Polygon","coordinates":[[[-101.410252834699,26.22367445855236],[-101.4102489343414,26.22371687419431],[-101.4102982001361,26.22371317652085],[-101.4102965907175,26.22367372451095],[-101.410252834699,26.22367445855236]]]}},{"type":"Feature","id":"19","properties":{"FID":19,"FID_jardin":-1,"Nombre":"","FID_jard_1":-1,"Nombre_1":"","FID_costad":-1,"Nombre_12":"","FID_cost_1":-1,"Nombre__13":"","FID_jard_2":-1,"Nombre__14":"","FID_jard_3":-1,"Nombre__15":"","FID_jard_4":-1,"Nombre__16":"","FID_Patio_":-1,"Nombre__17":"","FID_Planta":-1,"Nombre__18":"","FID_jard_5":-1,"Nombre__19":"","FID_Empedr":-1,"Nombre__20":"","FID_Jard_6":-1,"Nombre__21":"","FID_Jard_7":0,"Nombre__22":"Jardin_archivo_muerto_emergencias","FID_Jard_8":-1,"Nombre__23":"","FID_jard_9":-1,"Nombre__24":"","FID_jar_10":-1,"Nombre__25":"","Turno":14,"KML_Name":"","NombreFinal":"Jardin_archivo_muerto_emergencias"},"geometry":{"type":"Polygon","coordinates":[[[-101.4102470490876,26.22339389573105],[-101.4100213643506,26.22344864533987],[-101.4100332715972,26.22348577122257],[-101.4103776248452,26.22339672980413],[-101.4103706240521,26.22336598184438],[-101.4102970363233,26.22338659696155],[-101.4102650702546,26.22326438937841],[-101.4103465395385,26.22324005305866],[-101.4103444009149,26.22321353032922],[-101.4102194125373,26.22325008149874],[-101.4102470490876,26.22339389573105]]]}},{"type":"Feature","id":"20","properties":{"FID":20,"FID_jardin":-1,"Nombre":"","FID_jard_1":-1,"Nombre_1":"","FID_costad":-1,"Nombre_12":"","FID_cost_1":-1,"Nombre__13":"","FID_jard_2":-1,"Nombre__14":"","FID_jard_3":-1,"Nombre__15":"","FID_jard_4":-1,"Nombre__16":"","FID_Patio_":-1,"Nombre__17":"","FID_Planta":-1,"Nombre__18":"","FID_jard_5":-1,"Nombre__19":"","FID_Empedr":-1,"Nombre__20":"","FID_Jard_6":-1,"Nombre__21":"","FID_Jard_7":-1,"Nombre__22":"","FID_Jard_8":0,"Nombre__23":"Jardin_ATRP_Torre","FID_jard_9":-1,"Nombre__24":"","FID_jar_10":-1,"Nombre__25":"","Turno":16,"KML_Name":"","NombreFinal":"Jardin_ATRP_Torre"},"geometry":{"type":"Polygon","coordinates":[[[-101.4117749281276,26.22354196425809],[-101.4118982603749,26.22373369983596],[-101.4119257349102,26.22371529362391],[-101.4118111834375,26.22352484627248],[-101.4117749281276,26.22354196425809]]]}},{"type":"Feature","id":"21","properties":{"FID":21,"FID_jardin":-1,"Nombre":"","FID_jard_1":-1,"Nombre_1":"","FID_costad":-1,"Nombre_12":"","FID_cost_1":-1,"Nombre__13":"","FID_jard_2":-1,"Nombre__14":"","FID_jard_3":-1,"Nombre__15":"","FID_jard_4":-1,"Nombre__16":"","FID_Patio_":-1,"Nombre__17":"","FID_Planta":-1,"Nombre__18":"","FID_jard_5":-1,"Nombre__19":"","FID_Empedr":-1,"Nombre__20":"","FID_Jard_6":-1,"Nombre__21":"","FID_Jard_7":-1,"Nombre__22":"","FID_Jard_8":1,"Nombre__23":"Jardin_ATRP_Torre","FID_jard_9":-1,"Nombre__24":"","FID_jar_10":-1,"Nombre__25":"","Turno":16,"KML_Name":"","NombreFinal":"Jardin_ATRP_Torre"},"geometry":{"type":"Polygon","coordinates":[[[-101.4113824153945,26.22334110835599],[-101.4113906155611,26.22342997790997],[-101.4117156369818,26.22332977299663],[-101.4117328876183,26.22331728083656],[-101.4113824153945,26.22334110835599]]]}},{"type":"Feature","id":"22","properties":{"FID":22,"FID_jardin":-1,"Nombre":"","FID_jard_1":-1,"Nombre_1":"","FID_costad":-1,"Nombre_12":"","FID_cost_1":-1,"Nombre__13":"","FID_jard_2":-1,"Nombre__14":"","FID_jard_3":-1,"Nombre__15":"","FID_jard_4":-1,"Nombre__16":"","FID_Patio_":-1,"Nombre__17":"","FID_Planta":-1,"Nombre__18":"","FID_jard_5":-1,"Nombre__19":"","FID_Empedr":-1,"Nombre__20":"","FID_Jard_6":-1,"Nombre__21":"","FID_Jard_7":-1,"Nombre__22":"","FID_Jard_8":2,"Nombre__23":"Jardin_ATRP_Torre","FID_jard_9":-1,"Nombre__24":"","FID_jar_10":-1,"Nombre__25":"","Turno":16,"KML_Name":"","NombreFinal":"Jardin_ATRP_Torre"},"geometry":{"type":"Polygon","coordinates":[[[-101.4113801284957,26.22330741014477],[-101.4117462749333,26.22327183473609],[-101.4117740415448,26.22322901846301],[-101.4113860707929,26.22320968963291],[-101.4113801284957,26.22330741014477]]]}},{"type":"Feature","id":"23","properties":{"FID":23,"FID_jardin":-1,"Nombre":"","FID_jard_1":-1,"Nombre_1":"","FID_costad":-1,"Nombre_12":"","FID_cost_1":-1,"Nombre__13":"","FID_jard_2":-1,"Nombre__14":"","FID_jard_3":-1,"Nombre__15":"","FID_jard_4":-1,"Nombre__16":"","FID_Patio_":-1,"Nombre__17":"","FID_Planta":-1,"Nombre__18":"","FID_jard_5":-1,"Nombre__19":"","FID_Empedr":-1,"Nombre__20":"","FID_Jard_6":-1,"Nombre__21":"","FID_Jard_7":-1,"Nombre__22":"","FID_Jard_8":-1,"Nombre__23":"","FID_jard_9":0,"Nombre__24":"Jardin_triangulo_torre","FID_jar_10":-1,"Nombre__25":"","Turno":15,"KML_Name":"","NombreFinal":"Jardin_triangulo_torre"},"geometry":{"type":"Polygon","coordinates":[[[-101.4107025157985,26.22393555121475],[-101.4109036846588,26.2238056231579],[-101.4107911051384,26.22373826649632],[-101.4107025157985,26.22393555121475]]]}},{"type":"Feature","id":"24","properties":{"FID":24,"FID_jardin":-1,"Nombre":"","FID_jard_1":-1,"Nombre_1":"","FID_costad":-1,"Nombre_12":"","FID_cost_1":-1,"Nombre__13":"","FID_jard_2":-1,"Nombre__14":"","FID_jard_3":-1,"Nombre__15":"","FID_jard_4":-1,"Nombre__16":"","FID_Patio_":-1,"Nombre__17":"","FID_Planta":-1,"Nombre__18":"","FID_jard_5":-1,"Nombre__19":"","FID_Empedr":-1,"Nombre__20":"","FID_Jard_6":-1,"Nombre__21":"","FID_Jard_7":-1,"Nombre__22":"","FID_Jard_8":-1,"Nombre__23":"","FID_jard_9":-1,"Nombre__24":"","FID_jar_10":0,"Nombre__25":"Jardin_osmosis","Turno":2,"KML_Name":"","NombreFinal":"Jardin_osmosis"},"geometry":{"type":"Polygon","coordinates":[[[-101.4109611938678,26.22425619418109],[-101.4109890868761,26.22429664070491],[-101.4109354767203,26.22432122772621],[-101.4109569459843,26.22435891085077],[-101.4110148706925,26.22431199962093],[-101.410968971921,26.22424745005978],[-101.4109611938678,26.22425619418109]]]}},{"type":"Feature","id":"25","properties":{"FID":25,"FID_jardin":-1,"Nombre":"","FID_jard_1":-1,"Nombre_1":"","FID_costad":-1,"Nombre_12":"","FID_cost_1":-1,"Nombre__13":"","FID_jard_2":-1,"Nombre__14":"","FID_jard_3":-1,"Nombre__15":"","FID_jard_4":-1,"Nombre__16":"","FID_Patio_":-1,"Nombre__17":"","FID_Planta":-1,"Nombre__18":"","FID_jard_5":-1,"Nombre__19":"","FID_Empedr":-1,"Nombre__20":"","FID_Jard_6":-1,"Nombre__21":"","FID_Jard_7":-1,"Nombre__22":"","FID_Jard_8":-1,"Nombre__23":"","FID_jard_9":-1,"Nombre__24":"","FID_jar_10":1,"Nombre__25":"Jardin_osmosis","Turno":2,"KML_Name":"","NombreFinal":"Jardin_osmosis"},"geometry":{"type":"Polygon","coordinates":[[[-101.410946381473,26.2241939941517],[-101.4110292353209,26.22431391196378],[-101.4110416979651,26.22430078242569],[-101.4109644870935,26.22418435892677],[-101.410946381473,26.2241939941517]]]}}]}