<?xml version="1.0" encoding="UTF-8"?>
<kml xmlns="http://www.opengis.net/kml/2.2" xmlns:gx="http://www.google.com/kml/ext/2.2" xmlns:xsi="http://www.w3.org/2001/XMLSchema-instance"
 xsi:schemaLocation="http://www.opengis.net/kml/2.2 http://schemas.opengis.net/kml/2.2.0/ogckml22.xsd http://www.google.com/kml/ext/2.2 http://code.google.com/apis/kml/schema/kml22gx.xsd">
<Document id="google_Geograficas_Areas_Verdes_CIMARI">
  <name>google_Geograficas_Areas_Verdes_CIMARI</name>
  <Snippet></Snippet>
  <Style id="PolyStyle00">
    <LabelStyle>
      <color>00000000</color>
      <scale>0.000000</scale>
    </LabelStyle>
    <LineStyle>
      <color>ff6e6e6e</color>
      <width>0.400000</width>
    </LineStyle>
    <PolyStyle>
      <color>fffaf6d4</color>
      <outline>1</outline>
    </PolyStyle>
  </Style>
  <Folder id="FeatureLayer0">
    <name>google_Geograficas_Areas_Verdes_CIMARI</name>
    <Snippet></Snippet>
    <Placemark id="ID_00000">
      <name>jardin_comedor</name>
      <Snippet></Snippet>
      <description><![CDATA[<html xmlns:fo="http://www.w3.org/1999/XSL/Format" xmlns:msxsl="urn:schemas-microsoft-com:xslt">
<head>
<META http-equiv="Content-Type" content="text/html">
<meta http-equiv="content-type" content="text/html; charset=UTF-8">
</head>
<body style="margin:0px 0px 0px 0px;overflow:auto;background:#FFFFFF;">
<table style="font-family:Arial,Verdana,Times;font-size:12px;text-align:left;width:100%;border-collapse:collapse;padding:3px 3px 3px 3px">
<tr style="text-align:center;font-weight:bold;background:#9CBCE2">
<td>jardin_comedor</td>
</tr>
<tr>
<td>
<table style="font-family:Arial,Verdana,Times;font-size:12px;text-align:left;width:100%;border-spacing:0px; padding:3px 3px 3px 3px">
<tr>
<td>FID</td>
<td>0</td>
</tr>
<tr bgcolor="#D4E4F3">
<td>FID_jardin</td>
<td>0</td>
</tr>
<tr>
<td>Nombre</td>
<td>jardin_comedor</td>
</tr>
<tr bgcolor="#D4E4F3">
<td>FID_jard_1</td>
<td>-1</td>
</tr>
<tr>
<td>Nombre_1</td>
<td></td>
</tr>
<tr bgcolor="#D4E4F3">
<td>FID_costad</td>
<td>-1</td>
</tr>
<tr>
<td>Nombre_12</td>
<td></td>
</tr>
<tr bgcolor="#D4E4F3">
<td>FID_cost_1</td>
<td>-1</td>
</tr>
<tr>
<td>Nombre__13</td>
<td></td>
</tr>
<tr bgcolor="#D4E4F3">
<td>FID_jard_2</td>
<td>-1</td>
</tr>
<tr>
<td>Nombre__14</td>
<td></td>
</tr>
<tr bgcolor="#D4E4F3">
<td>FID_jard_3</td>
<td>-1</td>
</tr>
<tr>
<td>Nombre__15</td>
<td></td>
</tr>
<tr bgcolor="#D4E4F3">
<td>FID_jard_4</td>
<td>-1</td>
</tr>
<tr>
<td>Nombre__16</td>
<td></td>
</tr>
<tr bgcolor="#D4E4F3">
<td>FID_Patio_</td>
<td>-1</td>
</tr>
<tr>
<td>Nombre__17</td>
<td></td>
</tr>
<tr bgcolor="#D4E4F3">
<td>FID_Planta</td>
<td>-1</td>
</tr>
<tr>
<td>Nombre__18</td>
<td></td>
</tr>
<tr bgcolor="#D4E4F3">
<td>FID_jard_5</td>
<td>-1</td>
</tr>
<tr>
<td>Nombre__19</td>
<td></td>
</tr>
<tr bgcolor="#D4E4F3">
<td>FID_Empedr</td>
<td>-1</td>
</tr>
<tr>
<td>Nombre__20</td>
<td></td>
</tr>
<tr bgcolor="#D4E4F3">
<td>FID_Jard_6</td>
<td>-1</td>
</tr>
<tr>
<td>Nombre__21</td>
<td></td>
</tr>
<tr bgcolor="#D4E4F3">
<td>FID_Jard_7</td>
<td>-1</td>
</tr>
<tr>
<td>Nombre__22</td>
<td></td>
</tr>
<tr bgcolor="#D4E4F3">
<td>FID_Jard_8</td>
<td>-1</td>
</tr>
<tr>
<td>Nombre__23</td>
<td></td>
</tr>
<tr bgcolor="#D4E4F3">
<td>FID_jard_9</td>
<td>-1</td>
</tr>
<tr>
<td>Nombre__24</td>
<td></td>
</tr>
<tr bgcolor="#D4E4F3">
<td>FID_jar_10</td>
<td>-1</td>
</tr>
<tr>
<td>Nombre__25</td>
<td></td>
</tr>
<tr bgcolor="#D4E4F3">
<td>Turno</td>
<td>1</td>
</tr>
</table>
</td>
</tr>
</table>
</body>
</html>
]]></description>
      <styleUrl>#PolyStyle00</styleUrl>
      <MultiGeometry>
        <Polygon>
          <extrude>0</extrude><altitudeMode>clampToGround</altitudeMode>
          <outerBoundaryIs><LinearRing><coordinates> -101.4105808349251,26.224220226213,0 -101.4106493090077,26.22433751432909,0 -101.4107617876113,26.22427317844401,0 -101.4106924586962,26.22415303352788,0 -101.4105808349251,26.224220226213,0</coordinates></LinearRing></outerBoundaryIs>
        </Polygon>
      </MultiGeometry>
    </Placemark>
    <Placemark id="ID_00001">
      <name>jardin_comedor</name>
      <Snippet></Snippet>
      <description><![CDATA[<html xmlns:fo="http://www.w3.org/1999/XSL/Format" xmlns:msxsl="urn:schemas-microsoft-com:xslt">
<head>
<META http-equiv="Content-Type" content="text/html">
<meta http-equiv="content-type" content="text/html; charset=UTF-8">
</head>
<body style="margin:0px 0px 0px 0px;overflow:auto;background:#FFFFFF;">
<table style="font-family:Arial,Verdana,Times;font-size:12px;text-align:left;width:100%;border-collapse:collapse;padding:3px 3px 3px 3px">
<tr style="text-align:center;font-weight:bold;background:#9CBCE2">
<td>jardin_comedor</td>
</tr>
<tr>
<td>
<table style="font-family:Arial,Verdana,Times;font-size:12px;text-align:left;width:100%;border-spacing:0px; padding:3px 3px 3px 3px">
<tr>
<td>FID</td>
<td>1</td>
</tr>
<tr bgcolor="#D4E4F3">
<td>FID_jardin</td>
<td>1</td>
</tr>
<tr>
<td>Nombre</td>
<td>jardin_comedor</td>
</tr>
<tr bgcolor="#D4E4F3">
<td>FID_jard_1</td>
<td>-1</td>
</tr>
<tr>
<td>Nombre_1</td>
<td></td>
</tr>
<tr bgcolor="#D4E4F3">
<td>FID_costad</td>
<td>-1</td>
</tr>
<tr>
<td>Nombre_12</td>
<td></td>
</tr>
<tr bgcolor="#D4E4F3">
<td>FID_cost_1</td>
<td>-1</td>
</tr>
<tr>
<td>Nombre__13</td>
<td></td>
</tr>
<tr bgcolor="#D4E4F3">
<td>FID_jard_2</td>
<td>-1</td>
</tr>
<tr>
<td>Nombre__14</td>
<td></td>
</tr>
<tr bgcolor="#D4E4F3">
<td>FID_jard_3</td>
<td>-1</td>
</tr>
<tr>
<td>Nombre__15</td>
<td></td>
</tr>
<tr bgcolor="#D4E4F3">
<td>FID_jard_4</td>
<td>-1</td>
</tr>
<tr>
<td>Nombre__16</td>
<td></td>
</tr>
<tr bgcolor="#D4E4F3">
<td>FID_Patio_</td>
<td>-1</td>
</tr>
<tr>
<td>Nombre__17</td>
<td></td>
</tr>
<tr bgcolor="#D4E4F3">
<td>FID_Planta</td>
<td>-1</td>
</tr>
<tr>
<td>Nombre__18</td>
<td></td>
</tr>
<tr bgcolor="#D4E4F3">
<td>FID_jard_5</td>
<td>-1</td>
</tr>
<tr>
<td>Nombre__19</td>
<td></td>
</tr>
<tr bgcolor="#D4E4F3">
<td>FID_Empedr</td>
<td>-1</td>
</tr>
<tr>
<td>Nombre__20</td>
<td></td>
</tr>
<tr bgcolor="#D4E4F3">
<td>FID_Jard_6</td>
<td>-1</td>
</tr>
<tr>
<td>Nombre__21</td>
<td></td>
</tr>
<tr bgcolor="#D4E4F3">
<td>FID_Jard_7</td>
<td>-1</td>
</tr>
<tr>
<td>Nombre__22</td>
<td></td>
</tr>
<tr bgcolor="#D4E4F3">
<td>FID_Jard_8</td>
<td>-1</td>
</tr>
<tr>
<td>Nombre__23</td>
<td></td>
</tr>
<tr bgcolor="#D4E4F3">
<td>FID_jard_9</td>
<td>-1</td>
</tr>
<tr>
<td>Nombre__24</td>
<td></td>
</tr>
<tr bgcolor="#D4E4F3">
<td>FID_jar_10</td>
<td>-1</td>
</tr>
<tr>
<td>Nombre__25</td>
<td></td>
</tr>
<tr bgcolor="#D4E4F3">
<td>Turno</td>
<td>1</td>
</tr>
</table>
</td>
</tr>
</table>
</body>
</html>
]]></description>
      <styleUrl>#PolyStyle00</styleUrl>
      <MultiGeometry>
        <Polygon>
          <extrude>0</extrude><altitudeMode>clampToGround</altitudeMode>
          <outerBoundaryIs><LinearRing><coordinates> -101.4105534564536,26.22416613276715,0 -101.4105598837821,26.22420765733228,0 -101.410821081569,26.224061150323,0 -101.4107997752173,26.22403136023775,0 -101.4105534564536,26.22416613276715,0</coordinates></LinearRing></outerBoundaryIs>
        </Polygon>
      </MultiGeometry>
    </Placemark>
    <Placemark id="ID_00002">
      <name>jardin_comedor</name>
      <Snippet></Snippet>
      <description><![CDATA[<html xmlns:fo="http://www.w3.org/1999/XSL/Format" xmlns:msxsl="urn:schemas-microsoft-com:xslt">
<head>
<META http-equiv="Content-Type" content="text/html">
<meta http-equiv="content-type" content="text/html; charset=UTF-8">
</head>
<body style="margin:0px 0px 0px 0px;overflow:auto;background:#FFFFFF;">
<table style="font-family:Arial,Verdana,Times;font-size:12px;text-align:left;width:100%;border-collapse:collapse;padding:3px 3px 3px 3px">
<tr style="text-align:center;font-weight:bold;background:#9CBCE2">
<td>jardin_comedor</td>
</tr>
<tr>
<td>
<table style="font-family:Arial,Verdana,Times;font-size:12px;text-align:left;width:100%;border-spacing:0px; padding:3px 3px 3px 3px">
<tr>
<td>FID</td>
<td>2</td>
</tr>
<tr bgcolor="#D4E4F3">
<td>FID_jardin</td>
<td>2</td>
</tr>
<tr>
<td>Nombre</td>
<td>jardin_comedor</td>
</tr>
<tr bgcolor="#D4E4F3">
<td>FID_jard_1</td>
<td>-1</td>
</tr>
<tr>
<td>Nombre_1</td>
<td></td>
</tr>
<tr bgcolor="#D4E4F3">
<td>FID_costad</td>
<td>-1</td>
</tr>
<tr>
<td>Nombre_12</td>
<td></td>
</tr>
<tr bgcolor="#D4E4F3">
<td>FID_cost_1</td>
<td>-1</td>
</tr>
<tr>
<td>Nombre__13</td>
<td></td>
</tr>
<tr bgcolor="#D4E4F3">
<td>FID_jard_2</td>
<td>-1</td>
</tr>
<tr>
<td>Nombre__14</td>
<td></td>
</tr>
<tr bgcolor="#D4E4F3">
<td>FID_jard_3</td>
<td>-1</td>
</tr>
<tr>
<td>Nombre__15</td>
<td></td>
</tr>
<tr bgcolor="#D4E4F3">
<td>FID_jard_4</td>
<td>-1</td>
</tr>
<tr>
<td>Nombre__16</td>
<td></td>
</tr>
<tr bgcolor="#D4E4F3">
<td>FID_Patio_</td>
<td>-1</td>
</tr>
<tr>
<td>Nombre__17</td>
<td></td>
</tr>
<tr bgcolor="#D4E4F3">
<td>FID_Planta</td>
<td>-1</td>
</tr>
<tr>
<td>Nombre__18</td>
<td></td>
</tr>
<tr bgcolor="#D4E4F3">
<td>FID_jard_5</td>
<td>-1</td>
</tr>
<tr>
<td>Nombre__19</td>
<td></td>
</tr>
<tr bgcolor="#D4E4F3">
<td>FID_Empedr</td>
<td>-1</td>
</tr>
<tr>
<td>Nombre__20</td>
<td></td>
</tr>
<tr bgcolor="#D4E4F3">
<td>FID_Jard_6</td>
<td>-1</td>
</tr>
<tr>
<td>Nombre__21</td>
<td></td>
</tr>
<tr bgcolor="#D4E4F3">
<td>FID_Jard_7</td>
<td>-1</td>
</tr>
<tr>
<td>Nombre__22</td>
<td></td>
</tr>
<tr bgcolor="#D4E4F3">
<td>FID_Jard_8</td>
<td>-1</td>
</tr>
<tr>
<td>Nombre__23</td>
<td></td>
</tr>
<tr bgcolor="#D4E4F3">
<td>FID_jard_9</td>
<td>-1</td>
</tr>
<tr>
<td>Nombre__24</td>
<td></td>
</tr>
<tr bgcolor="#D4E4F3">
<td>FID_jar_10</td>
<td>-1</td>
</tr>
<tr>
<td>Nombre__25</td>
<td></td>
</tr>
<tr bgcolor="#D4E4F3">
<td>Turno</td>
<td>1</td>
</tr>
</table>
</td>
</tr>
</table>
</body>
</html>
]]></description>
      <styleUrl>#PolyStyle00</styleUrl>
      <MultiGeometry>
        <Polygon>
          <extrude>0</extrude><altitudeMode>clampToGround</altitudeMode>
          <outerBoundaryIs><LinearRing><coordinates> -101.410840112273,26.22401919859292,0 -101.4108598571017,26.22405045047405,0 -101.4109826480626,26.22398450579264,0 -101.4109661298818,26.22395535318364,0 -101.410840112273,26.22401919859292,0</coordinates></LinearRing></outerBoundaryIs>
        </Polygon>
      </MultiGeometry>
    </Placemark>
    <Placemark id="ID_00003">
      <name> </name>
      <Snippet></Snippet>
      <description><![CDATA[<html xmlns:fo="http://www.w3.org/1999/XSL/Format" xmlns:msxsl="urn:schemas-microsoft-com:xslt">
<head>
<META http-equiv="Content-Type" content="text/html">
<meta http-equiv="content-type" content="text/html; charset=UTF-8">
</head>
<body style="margin:0px 0px 0px 0px;overflow:auto;background:#FFFFFF;">
<table style="font-family:Arial,Verdana,Times;font-size:12px;text-align:left;width:100%;border-collapse:collapse;padding:3px 3px 3px 3px">
<tr style="text-align:center;font-weight:bold;background:#9CBCE2">
<td> </td>
</tr>
<tr>
<td>
<table style="font-family:Arial,Verdana,Times;font-size:12px;text-align:left;width:100%;border-spacing:0px; padding:3px 3px 3px 3px">
<tr>
<td>FID</td>
<td>3</td>
</tr>
<tr bgcolor="#D4E4F3">
<td>FID_jardin</td>
<td>-1</td>
</tr>
<tr>
<td>Nombre</td>
<td></td>
</tr>
<tr bgcolor="#D4E4F3">
<td>FID_jard_1</td>
<td>0</td>
</tr>
<tr>
<td>Nombre_1</td>
<td>Jardin_Paneles_solares</td>
</tr>
<tr bgcolor="#D4E4F3">
<td>FID_costad</td>
<td>-1</td>
</tr>
<tr>
<td>Nombre_12</td>
<td></td>
</tr>
<tr bgcolor="#D4E4F3">
<td>FID_cost_1</td>
<td>-1</td>
</tr>
<tr>
<td>Nombre__13</td>
<td></td>
</tr>
<tr bgcolor="#D4E4F3">
<td>FID_jard_2</td>
<td>-1</td>
</tr>
<tr>
<td>Nombre__14</td>
<td></td>
</tr>
<tr bgcolor="#D4E4F3">
<td>FID_jard_3</td>
<td>-1</td>
</tr>
<tr>
<td>Nombre__15</td>
<td></td>
</tr>
<tr bgcolor="#D4E4F3">
<td>FID_jard_4</td>
<td>-1</td>
</tr>
<tr>
<td>Nombre__16</td>
<td></td>
</tr>
<tr bgcolor="#D4E4F3">
<td>FID_Patio_</td>
<td>-1</td>
</tr>
<tr>
<td>Nombre__17</td>
<td></td>
</tr>
<tr bgcolor="#D4E4F3">
<td>FID_Planta</td>
<td>-1</td>
</tr>
<tr>
<td>Nombre__18</td>
<td></td>
</tr>
<tr bgcolor="#D4E4F3">
<td>FID_jard_5</td>
<td>-1</td>
</tr>
<tr>
<td>Nombre__19</td>
<td></td>
</tr>
<tr bgcolor="#D4E4F3">
<td>FID_Empedr</td>
<td>-1</td>
</tr>
<tr>
<td>Nombre__20</td>
<td></td>
</tr>
<tr bgcolor="#D4E4F3">
<td>FID_Jard_6</td>
<td>-1</td>
</tr>
<tr>
<td>Nombre__21</td>
<td></td>
</tr>
<tr bgcolor="#D4E4F3">
<td>FID_Jard_7</td>
<td>-1</td>
</tr>
<tr>
<td>Nombre__22</td>
<td></td>
</tr>
<tr bgcolor="#D4E4F3">
<td>FID_Jard_8</td>
<td>-1</td>
</tr>
<tr>
<td>Nombre__23</td>
<td></td>
</tr>
<tr bgcolor="#D4E4F3">
<td>FID_jard_9</td>
<td>-1</td>
</tr>
<tr>
<td>Nombre__24</td>
<td></td>
</tr>
<tr bgcolor="#D4E4F3">
<td>FID_jar_10</td>
<td>-1</td>
</tr>
<tr>
<td>Nombre__25</td>
<td></td>
</tr>
<tr bgcolor="#D4E4F3">
<td>Turno</td>
<td>3</td>
</tr>
</table>
</td>
</tr>
</table>
</body>
</html>
]]></description>
      <styleUrl>#PolyStyle00</styleUrl>
      <MultiGeometry>
        <Polygon>
          <extrude>0</extrude><altitudeMode>clampToGround</altitudeMode>
          <outerBoundaryIs><LinearRing><coordinates> -101.4107949830296,26.22445494262809,0 -101.4110111007283,26.22478509299996,0 -101.4110346193788,26.22438201260053,0 -101.4110049131647,26.22433082951724,0 -101.4107949830296,26.22445494262809,0</coordinates></LinearRing></outerBoundaryIs>
        </Polygon>
      </MultiGeometry>
    </Placemark>
    <Placemark id="ID_00004">
      <name> </name>
      <Snippet></Snippet>
      <description><![CDATA[<html xmlns:fo="http://www.w3.org/1999/XSL/Format" xmlns:msxsl="urn:schemas-microsoft-com:xslt">
<head>
<META http-equiv="Content-Type" content="text/html">
<meta http-equiv="content-type" content="text/html; charset=UTF-8">
</head>
<body style="margin:0px 0px 0px 0px;overflow:auto;background:#FFFFFF;">
<table style="font-family:Arial,Verdana,Times;font-size:12px;text-align:left;width:100%;border-collapse:collapse;padding:3px 3px 3px 3px">
<tr style="text-align:center;font-weight:bold;background:#9CBCE2">
<td> </td>
</tr>
<tr>
<td>
<table style="font-family:Arial,Verdana,Times;font-size:12px;text-align:left;width:100%;border-spacing:0px; padding:3px 3px 3px 3px">
<tr>
<td>FID</td>
<td>4</td>
</tr>
<tr bgcolor="#D4E4F3">
<td>FID_jardin</td>
<td>-1</td>
</tr>
<tr>
<td>Nombre</td>
<td></td>
</tr>
<tr bgcolor="#D4E4F3">
<td>FID_jard_1</td>
<td>-1</td>
</tr>
<tr>
<td>Nombre_1</td>
<td></td>
</tr>
<tr bgcolor="#D4E4F3">
<td>FID_costad</td>
<td>0</td>
</tr>
<tr>
<td>Nombre_12</td>
<td>Costado_vivero</td>
</tr>
<tr bgcolor="#D4E4F3">
<td>FID_cost_1</td>
<td>-1</td>
</tr>
<tr>
<td>Nombre__13</td>
<td></td>
</tr>
<tr bgcolor="#D4E4F3">
<td>FID_jard_2</td>
<td>-1</td>
</tr>
<tr>
<td>Nombre__14</td>
<td></td>
</tr>
<tr bgcolor="#D4E4F3">
<td>FID_jard_3</td>
<td>-1</td>
</tr>
<tr>
<td>Nombre__15</td>
<td></td>
</tr>
<tr bgcolor="#D4E4F3">
<td>FID_jard_4</td>
<td>-1</td>
</tr>
<tr>
<td>Nombre__16</td>
<td></td>
</tr>
<tr bgcolor="#D4E4F3">
<td>FID_Patio_</td>
<td>-1</td>
</tr>
<tr>
<td>Nombre__17</td>
<td></td>
</tr>
<tr bgcolor="#D4E4F3">
<td>FID_Planta</td>
<td>-1</td>
</tr>
<tr>
<td>Nombre__18</td>
<td></td>
</tr>
<tr bgcolor="#D4E4F3">
<td>FID_jard_5</td>
<td>-1</td>
</tr>
<tr>
<td>Nombre__19</td>
<td></td>
</tr>
<tr bgcolor="#D4E4F3">
<td>FID_Empedr</td>
<td>-1</td>
</tr>
<tr>
<td>Nombre__20</td>
<td></td>
</tr>
<tr bgcolor="#D4E4F3">
<td>FID_Jard_6</td>
<td>-1</td>
</tr>
<tr>
<td>Nombre__21</td>
<td></td>
</tr>
<tr bgcolor="#D4E4F3">
<td>FID_Jard_7</td>
<td>-1</td>
</tr>
<tr>
<td>Nombre__22</td>
<td></td>
</tr>
<tr bgcolor="#D4E4F3">
<td>FID_Jard_8</td>
<td>-1</td>
</tr>
<tr>
<td>Nombre__23</td>
<td></td>
</tr>
<tr bgcolor="#D4E4F3">
<td>FID_jard_9</td>
<td>-1</td>
</tr>
<tr>
<td>Nombre__24</td>
<td></td>
</tr>
<tr bgcolor="#D4E4F3">
<td>FID_jar_10</td>
<td>-1</td>
</tr>
<tr>
<td>Nombre__25</td>
<td></td>
</tr>
<tr bgcolor="#D4E4F3">
<td>Turno</td>
<td>4</td>
</tr>
</table>
</td>
</tr>
</table>
</body>
</html>
]]></description>
      <styleUrl>#PolyStyle00</styleUrl>
      <MultiGeometry>
        <Polygon>
          <extrude>0</extrude><altitudeMode>clampToGround</altitudeMode>
          <outerBoundaryIs><LinearRing><coordinates> -101.4109616420999,26.22477946277821,0 -101.410974282424,26.22477494386039,0 -101.4108408854984,26.22455825337816,0 -101.4105996315287,26.22466853584676,0 -101.4106228103036,26.22471193273902,0 -101.4108448226427,26.22459479510829,0 -101.4109616420999,26.22477946277821,0</coordinates></LinearRing></outerBoundaryIs>
        </Polygon>
      </MultiGeometry>
    </Placemark>
    <Placemark id="ID_00005">
      <name> </name>
      <Snippet></Snippet>
      <description><![CDATA[<html xmlns:fo="http://www.w3.org/1999/XSL/Format" xmlns:msxsl="urn:schemas-microsoft-com:xslt">
<head>
<META http-equiv="Content-Type" content="text/html">
<meta http-equiv="content-type" content="text/html; charset=UTF-8">
</head>
<body style="margin:0px 0px 0px 0px;overflow:auto;background:#FFFFFF;">
<table style="font-family:Arial,Verdana,Times;font-size:12px;text-align:left;width:100%;border-collapse:collapse;padding:3px 3px 3px 3px">
<tr style="text-align:center;font-weight:bold;background:#9CBCE2">
<td> </td>
</tr>
<tr>
<td>
<table style="font-family:Arial,Verdana,Times;font-size:12px;text-align:left;width:100%;border-spacing:0px; padding:3px 3px 3px 3px">
<tr>
<td>FID</td>
<td>5</td>
</tr>
<tr bgcolor="#D4E4F3">
<td>FID_jardin</td>
<td>-1</td>
</tr>
<tr>
<td>Nombre</td>
<td></td>
</tr>
<tr bgcolor="#D4E4F3">
<td>FID_jard_1</td>
<td>-1</td>
</tr>
<tr>
<td>Nombre_1</td>
<td></td>
</tr>
<tr bgcolor="#D4E4F3">
<td>FID_costad</td>
<td>-1</td>
</tr>
<tr>
<td>Nombre_12</td>
<td></td>
</tr>
<tr bgcolor="#D4E4F3">
<td>FID_cost_1</td>
<td>0</td>
</tr>
<tr>
<td>Nombre__13</td>
<td>costado_vivero_generador</td>
</tr>
<tr bgcolor="#D4E4F3">
<td>FID_jard_2</td>
<td>-1</td>
</tr>
<tr>
<td>Nombre__14</td>
<td></td>
</tr>
<tr bgcolor="#D4E4F3">
<td>FID_jard_3</td>
<td>-1</td>
</tr>
<tr>
<td>Nombre__15</td>
<td></td>
</tr>
<tr bgcolor="#D4E4F3">
<td>FID_jard_4</td>
<td>-1</td>
</tr>
<tr>
<td>Nombre__16</td>
<td></td>
</tr>
<tr bgcolor="#D4E4F3">
<td>FID_Patio_</td>
<td>-1</td>
</tr>
<tr>
<td>Nombre__17</td>
<td></td>
</tr>
<tr bgcolor="#D4E4F3">
<td>FID_Planta</td>
<td>-1</td>
</tr>
<tr>
<td>Nombre__18</td>
<td></td>
</tr>
<tr bgcolor="#D4E4F3">
<td>FID_jard_5</td>
<td>-1</td>
</tr>
<tr>
<td>Nombre__19</td>
<td></td>
</tr>
<tr bgcolor="#D4E4F3">
<td>FID_Empedr</td>
<td>-1</td>
</tr>
<tr>
<td>Nombre__20</td>
<td></td>
</tr>
<tr bgcolor="#D4E4F3">
<td>FID_Jard_6</td>
<td>-1</td>
</tr>
<tr>
<td>Nombre__21</td>
<td></td>
</tr>
<tr bgcolor="#D4E4F3">
<td>FID_Jard_7</td>
<td>-1</td>
</tr>
<tr>
<td>Nombre__22</td>
<td></td>
</tr>
<tr bgcolor="#D4E4F3">
<td>FID_Jard_8</td>
<td>-1</td>
</tr>
<tr>
<td>Nombre__23</td>
<td></td>
</tr>
<tr bgcolor="#D4E4F3">
<td>FID_jard_9</td>
<td>-1</td>
</tr>
<tr>
<td>Nombre__24</td>
<td></td>
</tr>
<tr bgcolor="#D4E4F3">
<td>FID_jar_10</td>
<td>-1</td>
</tr>
<tr>
<td>Nombre__25</td>
<td></td>
</tr>
<tr bgcolor="#D4E4F3">
<td>Turno</td>
<td>5</td>
</tr>
</table>
</td>
</tr>
</table>
</body>
</html>
]]></description>
      <styleUrl>#PolyStyle00</styleUrl>
      <MultiGeometry>
        <Polygon>
          <extrude>0</extrude><altitudeMode>clampToGround</altitudeMode>
          <outerBoundaryIs><LinearRing><coordinates> -101.4103893434355,26.22479854737903,0 -101.4103067431452,26.22466770737293,0 -101.410279134936,26.22467965533957,0 -101.4103744844374,26.22482664031181,0 -101.410401356292,26.22481757587978,0 -101.4103967722597,26.22481031472168,0 -101.410396434875,26.22481048044674,0 -101.4103893434355,26.22479854737903,0</coordinates></LinearRing></outerBoundaryIs>
        </Polygon>
      </MultiGeometry>
    </Placemark>
    <Placemark id="ID_00006">
      <name> </name>
      <Snippet></Snippet>
      <description><![CDATA[<html xmlns:fo="http://www.w3.org/1999/XSL/Format" xmlns:msxsl="urn:schemas-microsoft-com:xslt">
<head>
<META http-equiv="Content-Type" content="text/html">
<meta http-equiv="content-type" content="text/html; charset=UTF-8">
</head>
<body style="margin:0px 0px 0px 0px;overflow:auto;background:#FFFFFF;">
<table style="font-family:Arial,Verdana,Times;font-size:12px;text-align:left;width:100%;border-collapse:collapse;padding:3px 3px 3px 3px">
<tr style="text-align:center;font-weight:bold;background:#9CBCE2">
<td> </td>
</tr>
<tr>
<td>
<table style="font-family:Arial,Verdana,Times;font-size:12px;text-align:left;width:100%;border-spacing:0px; padding:3px 3px 3px 3px">
<tr>
<td>FID</td>
<td>6</td>
</tr>
<tr bgcolor="#D4E4F3">
<td>FID_jardin</td>
<td>-1</td>
</tr>
<tr>
<td>Nombre</td>
<td></td>
</tr>
<tr bgcolor="#D4E4F3">
<td>FID_jard_1</td>
<td>-1</td>
</tr>
<tr>
<td>Nombre_1</td>
<td></td>
</tr>
<tr bgcolor="#D4E4F3">
<td>FID_costad</td>
<td>-1</td>
</tr>
<tr>
<td>Nombre_12</td>
<td></td>
</tr>
<tr bgcolor="#D4E4F3">
<td>FID_cost_1</td>
<td>1</td>
</tr>
<tr>
<td>Nombre__13</td>
<td>costado_vivero_generador</td>
</tr>
<tr bgcolor="#D4E4F3">
<td>FID_jard_2</td>
<td>-1</td>
</tr>
<tr>
<td>Nombre__14</td>
<td></td>
</tr>
<tr bgcolor="#D4E4F3">
<td>FID_jard_3</td>
<td>-1</td>
</tr>
<tr>
<td>Nombre__15</td>
<td></td>
</tr>
<tr bgcolor="#D4E4F3">
<td>FID_jard_4</td>
<td>-1</td>
</tr>
<tr>
<td>Nombre__16</td>
<td></td>
</tr>
<tr bgcolor="#D4E4F3">
<td>FID_Patio_</td>
<td>-1</td>
</tr>
<tr>
<td>Nombre__17</td>
<td></td>
</tr>
<tr bgcolor="#D4E4F3">
<td>FID_Planta</td>
<td>-1</td>
</tr>
<tr>
<td>Nombre__18</td>
<td></td>
</tr>
<tr bgcolor="#D4E4F3">
<td>FID_jard_5</td>
<td>-1</td>
</tr>
<tr>
<td>Nombre__19</td>
<td></td>
</tr>
<tr bgcolor="#D4E4F3">
<td>FID_Empedr</td>
<td>-1</td>
</tr>
<tr>
<td>Nombre__20</td>
<td></td>
</tr>
<tr bgcolor="#D4E4F3">
<td>FID_Jard_6</td>
<td>-1</td>
</tr>
<tr>
<td>Nombre__21</td>
<td></td>
</tr>
<tr bgcolor="#D4E4F3">
<td>FID_Jard_7</td>
<td>-1</td>
</tr>
<tr>
<td>Nombre__22</td>
<td></td>
</tr>
<tr bgcolor="#D4E4F3">
<td>FID_Jard_8</td>
<td>-1</td>
</tr>
<tr>
<td>Nombre__23</td>
<td></td>
</tr>
<tr bgcolor="#D4E4F3">
<td>FID_jard_9</td>
<td>-1</td>
</tr>
<tr>
<td>Nombre__24</td>
<td></td>
</tr>
<tr bgcolor="#D4E4F3">
<td>FID_jar_10</td>
<td>-1</td>
</tr>
<tr>
<td>Nombre__25</td>
<td></td>
</tr>
<tr bgcolor="#D4E4F3">
<td>Turno</td>
<td>5</td>
</tr>
</table>
</td>
</tr>
</table>
</body>
</html>
]]></description>
      <styleUrl>#PolyStyle00</styleUrl>
      <MultiGeometry>
        <Polygon>
          <extrude>0</extrude><altitudeMode>clampToGround</altitudeMode>
          <outerBoundaryIs><LinearRing><coordinates> -101.4103893434355,26.22479854737903,0 -101.4103967722597,26.22481031472168,0 -101.4105674015381,26.22472650061392,0 -101.4105335991714,26.22466964375498,0 -101.4104446616197,26.22471779292725,0 -101.4104208797203,26.22468373752222,0 -101.4103987073293,26.22468913411271,0 -101.410357892903,26.22463957284961,0 -101.4104666604949,26.22458821983408,0 -101.410437705633,26.22453487061813,0 -101.4102760640097,26.22460792684821,0 -101.4103893434355,26.22479854737903,0</coordinates></LinearRing></outerBoundaryIs>
        </Polygon>
      </MultiGeometry>
    </Placemark>
    <Placemark id="ID_00007">
      <name> </name>
      <Snippet></Snippet>
      <description><![CDATA[<html xmlns:fo="http://www.w3.org/1999/XSL/Format" xmlns:msxsl="urn:schemas-microsoft-com:xslt">
<head>
<META http-equiv="Content-Type" content="text/html">
<meta http-equiv="content-type" content="text/html; charset=UTF-8">
</head>
<body style="margin:0px 0px 0px 0px;overflow:auto;background:#FFFFFF;">
<table style="font-family:Arial,Verdana,Times;font-size:12px;text-align:left;width:100%;border-collapse:collapse;padding:3px 3px 3px 3px">
<tr style="text-align:center;font-weight:bold;background:#9CBCE2">
<td> </td>
</tr>
<tr>
<td>
<table style="font-family:Arial,Verdana,Times;font-size:12px;text-align:left;width:100%;border-spacing:0px; padding:3px 3px 3px 3px">
<tr>
<td>FID</td>
<td>7</td>
</tr>
<tr bgcolor="#D4E4F3">
<td>FID_jardin</td>
<td>-1</td>
</tr>
<tr>
<td>Nombre</td>
<td></td>
</tr>
<tr bgcolor="#D4E4F3">
<td>FID_jard_1</td>
<td>-1</td>
</tr>
<tr>
<td>Nombre_1</td>
<td></td>
</tr>
<tr bgcolor="#D4E4F3">
<td>FID_costad</td>
<td>-1</td>
</tr>
<tr>
<td>Nombre_12</td>
<td></td>
</tr>
<tr bgcolor="#D4E4F3">
<td>FID_cost_1</td>
<td>-1</td>
</tr>
<tr>
<td>Nombre__13</td>
<td></td>
</tr>
<tr bgcolor="#D4E4F3">
<td>FID_jard_2</td>
<td>0</td>
</tr>
<tr>
<td>Nombre__14</td>
<td>jardin_laboratorio</td>
</tr>
<tr bgcolor="#D4E4F3">
<td>FID_jard_3</td>
<td>-1</td>
</tr>
<tr>
<td>Nombre__15</td>
<td></td>
</tr>
<tr bgcolor="#D4E4F3">
<td>FID_jard_4</td>
<td>-1</td>
</tr>
<tr>
<td>Nombre__16</td>
<td></td>
</tr>
<tr bgcolor="#D4E4F3">
<td>FID_Patio_</td>
<td>-1</td>
</tr>
<tr>
<td>Nombre__17</td>
<td></td>
</tr>
<tr bgcolor="#D4E4F3">
<td>FID_Planta</td>
<td>-1</td>
</tr>
<tr>
<td>Nombre__18</td>
<td></td>
</tr>
<tr bgcolor="#D4E4F3">
<td>FID_jard_5</td>
<td>-1</td>
</tr>
<tr>
<td>Nombre__19</td>
<td></td>
</tr>
<tr bgcolor="#D4E4F3">
<td>FID_Empedr</td>
<td>-1</td>
</tr>
<tr>
<td>Nombre__20</td>
<td></td>
</tr>
<tr bgcolor="#D4E4F3">
<td>FID_Jard_6</td>
<td>-1</td>
</tr>
<tr>
<td>Nombre__21</td>
<td></td>
</tr>
<tr bgcolor="#D4E4F3">
<td>FID_Jard_7</td>
<td>-1</td>
</tr>
<tr>
<td>Nombre__22</td>
<td></td>
</tr>
<tr bgcolor="#D4E4F3">
<td>FID_Jard_8</td>
<td>-1</td>
</tr>
<tr>
<td>Nombre__23</td>
<td></td>
</tr>
<tr bgcolor="#D4E4F3">
<td>FID_jard_9</td>
<td>-1</td>
</tr>
<tr>
<td>Nombre__24</td>
<td></td>
</tr>
<tr bgcolor="#D4E4F3">
<td>FID_jar_10</td>
<td>-1</td>
</tr>
<tr>
<td>Nombre__25</td>
<td></td>
</tr>
<tr bgcolor="#D4E4F3">
<td>Turno</td>
<td>6</td>
</tr>
</table>
</td>
</tr>
</table>
</body>
</html>
]]></description>
      <styleUrl>#PolyStyle00</styleUrl>
      <MultiGeometry>
        <Polygon>
          <extrude>0</extrude><altitudeMode>clampToGround</altitudeMode>
          <outerBoundaryIs><LinearRing><coordinates> -101.4103258086364,26.22435729787942,0 -101.410436806472,26.22452986110325,0 -101.4106082870821,26.22443223441926,0 -101.410535827957,26.22423749074116,0 -101.4103258086364,26.22435729787942,0</coordinates></LinearRing></outerBoundaryIs>
        </Polygon>
      </MultiGeometry>
    </Placemark>
    <Placemark id="ID_00008">
      <name> </name>
      <Snippet></Snippet>
      <description><![CDATA[<html xmlns:fo="http://www.w3.org/1999/XSL/Format" xmlns:msxsl="urn:schemas-microsoft-com:xslt">
<head>
<META http-equiv="Content-Type" content="text/html">
<meta http-equiv="content-type" content="text/html; charset=UTF-8">
</head>
<body style="margin:0px 0px 0px 0px;overflow:auto;background:#FFFFFF;">
<table style="font-family:Arial,Verdana,Times;font-size:12px;text-align:left;width:100%;border-collapse:collapse;padding:3px 3px 3px 3px">
<tr style="text-align:center;font-weight:bold;background:#9CBCE2">
<td> </td>
</tr>
<tr>
<td>
<table style="font-family:Arial,Verdana,Times;font-size:12px;text-align:left;width:100%;border-spacing:0px; padding:3px 3px 3px 3px">
<tr>
<td>FID</td>
<td>8</td>
</tr>
<tr bgcolor="#D4E4F3">
<td>FID_jardin</td>
<td>-1</td>
</tr>
<tr>
<td>Nombre</td>
<td></td>
</tr>
<tr bgcolor="#D4E4F3">
<td>FID_jard_1</td>
<td>-1</td>
</tr>
<tr>
<td>Nombre_1</td>
<td></td>
</tr>
<tr bgcolor="#D4E4F3">
<td>FID_costad</td>
<td>-1</td>
</tr>
<tr>
<td>Nombre_12</td>
<td></td>
</tr>
<tr bgcolor="#D4E4F3">
<td>FID_cost_1</td>
<td>-1</td>
</tr>
<tr>
<td>Nombre__13</td>
<td></td>
</tr>
<tr bgcolor="#D4E4F3">
<td>FID_jard_2</td>
<td>-1</td>
</tr>
<tr>
<td>Nombre__14</td>
<td></td>
</tr>
<tr bgcolor="#D4E4F3">
<td>FID_jard_3</td>
<td>0</td>
</tr>
<tr>
<td>Nombre__15</td>
<td>Jardin_65_caseta</td>
</tr>
<tr bgcolor="#D4E4F3">
<td>FID_jard_4</td>
<td>-1</td>
</tr>
<tr>
<td>Nombre__16</td>
<td></td>
</tr>
<tr bgcolor="#D4E4F3">
<td>FID_Patio_</td>
<td>-1</td>
</tr>
<tr>
<td>Nombre__17</td>
<td></td>
</tr>
<tr bgcolor="#D4E4F3">
<td>FID_Planta</td>
<td>-1</td>
</tr>
<tr>
<td>Nombre__18</td>
<td></td>
</tr>
<tr bgcolor="#D4E4F3">
<td>FID_jard_5</td>
<td>-1</td>
</tr>
<tr>
<td>Nombre__19</td>
<td></td>
</tr>
<tr bgcolor="#D4E4F3">
<td>FID_Empedr</td>
<td>-1</td>
</tr>
<tr>
<td>Nombre__20</td>
<td></td>
</tr>
<tr bgcolor="#D4E4F3">
<td>FID_Jard_6</td>
<td>-1</td>
</tr>
<tr>
<td>Nombre__21</td>
<td></td>
</tr>
<tr bgcolor="#D4E4F3">
<td>FID_Jard_7</td>
<td>-1</td>
</tr>
<tr>
<td>Nombre__22</td>
<td></td>
</tr>
<tr bgcolor="#D4E4F3">
<td>FID_Jard_8</td>
<td>-1</td>
</tr>
<tr>
<td>Nombre__23</td>
<td></td>
</tr>
<tr bgcolor="#D4E4F3">
<td>FID_jard_9</td>
<td>-1</td>
</tr>
<tr>
<td>Nombre__24</td>
<td></td>
</tr>
<tr bgcolor="#D4E4F3">
<td>FID_jar_10</td>
<td>-1</td>
</tr>
<tr>
<td>Nombre__25</td>
<td></td>
</tr>
<tr bgcolor="#D4E4F3">
<td>Turno</td>
<td>7</td>
</tr>
</table>
</td>
</tr>
</table>
</body>
</html>
]]></description>
      <styleUrl>#PolyStyle00</styleUrl>
      <MultiGeometry>
        <Polygon>
          <extrude>0</extrude><altitudeMode>clampToGround</altitudeMode>
          <outerBoundaryIs><LinearRing><coordinates> -101.4101620197766,26.22463496303775,0 -101.4102014797396,26.22469603188516,0 -101.4102376764673,26.2246760440511,0 -101.4101975393023,26.22462072897576,0 -101.4101620197766,26.22463496303775,0</coordinates></LinearRing></outerBoundaryIs>
        </Polygon>
      </MultiGeometry>
    </Placemark>
    <Placemark id="ID_00009">
      <name> </name>
      <Snippet></Snippet>
      <description><![CDATA[<html xmlns:fo="http://www.w3.org/1999/XSL/Format" xmlns:msxsl="urn:schemas-microsoft-com:xslt">
<head>
<META http-equiv="Content-Type" content="text/html">
<meta http-equiv="content-type" content="text/html; charset=UTF-8">
</head>
<body style="margin:0px 0px 0px 0px;overflow:auto;background:#FFFFFF;">
<table style="font-family:Arial,Verdana,Times;font-size:12px;text-align:left;width:100%;border-collapse:collapse;padding:3px 3px 3px 3px">
<tr style="text-align:center;font-weight:bold;background:#9CBCE2">
<td> </td>
</tr>
<tr>
<td>
<table style="font-family:Arial,Verdana,Times;font-size:12px;text-align:left;width:100%;border-spacing:0px; padding:3px 3px 3px 3px">
<tr>
<td>FID</td>
<td>9</td>
</tr>
<tr bgcolor="#D4E4F3">
<td>FID_jardin</td>
<td>-1</td>
</tr>
<tr>
<td>Nombre</td>
<td></td>
</tr>
<tr bgcolor="#D4E4F3">
<td>FID_jard_1</td>
<td>-1</td>
</tr>
<tr>
<td>Nombre_1</td>
<td></td>
</tr>
<tr bgcolor="#D4E4F3">
<td>FID_costad</td>
<td>-1</td>
</tr>
<tr>
<td>Nombre_12</td>
<td></td>
</tr>
<tr bgcolor="#D4E4F3">
<td>FID_cost_1</td>
<td>-1</td>
</tr>
<tr>
<td>Nombre__13</td>
<td></td>
</tr>
<tr bgcolor="#D4E4F3">
<td>FID_jard_2</td>
<td>-1</td>
</tr>
<tr>
<td>Nombre__14</td>
<td></td>
</tr>
<tr bgcolor="#D4E4F3">
<td>FID_jard_3</td>
<td>1</td>
</tr>
<tr>
<td>Nombre__15</td>
<td>Jardin_65_caseta</td>
</tr>
<tr bgcolor="#D4E4F3">
<td>FID_jard_4</td>
<td>-1</td>
</tr>
<tr>
<td>Nombre__16</td>
<td></td>
</tr>
<tr bgcolor="#D4E4F3">
<td>FID_Patio_</td>
<td>-1</td>
</tr>
<tr>
<td>Nombre__17</td>
<td></td>
</tr>
<tr bgcolor="#D4E4F3">
<td>FID_Planta</td>
<td>-1</td>
</tr>
<tr>
<td>Nombre__18</td>
<td></td>
</tr>
<tr bgcolor="#D4E4F3">
<td>FID_jard_5</td>
<td>-1</td>
</tr>
<tr>
<td>Nombre__19</td>
<td></td>
</tr>
<tr bgcolor="#D4E4F3">
<td>FID_Empedr</td>
<td>-1</td>
</tr>
<tr>
<td>Nombre__20</td>
<td></td>
</tr>
<tr bgcolor="#D4E4F3">
<td>FID_Jard_6</td>
<td>-1</td>
</tr>
<tr>
<td>Nombre__21</td>
<td></td>
</tr>
<tr bgcolor="#D4E4F3">
<td>FID_Jard_7</td>
<td>-1</td>
</tr>
<tr>
<td>Nombre__22</td>
<td></td>
</tr>
<tr bgcolor="#D4E4F3">
<td>FID_Jard_8</td>
<td>-1</td>
</tr>
<tr>
<td>Nombre__23</td>
<td></td>
</tr>
<tr bgcolor="#D4E4F3">
<td>FID_jard_9</td>
<td>-1</td>
</tr>
<tr>
<td>Nombre__24</td>
<td></td>
</tr>
<tr bgcolor="#D4E4F3">
<td>FID_jar_10</td>
<td>-1</td>
</tr>
<tr>
<td>Nombre__25</td>
<td></td>
</tr>
<tr bgcolor="#D4E4F3">
<td>Turno</td>
<td>7</td>
</tr>
</table>
</td>
</tr>
</table>
</body>
</html>
]]></description>
      <styleUrl>#PolyStyle00</styleUrl>
      <MultiGeometry>
        <Polygon>
          <extrude>0</extrude><altitudeMode>clampToGround</altitudeMode>
          <outerBoundaryIs><LinearRing><coordinates> -101.4101340277808,26.22447392757828,0 -101.4102251475078,26.22460878102513,0 -101.4102614921824,26.22459596870565,0 -101.410170239253,26.22445465731656,0 -101.4101340277808,26.22447392757828,0</coordinates></LinearRing></outerBoundaryIs>
        </Polygon>
      </MultiGeometry>
    </Placemark>
    <Placemark id="ID_00010">
      <name> </name>
      <Snippet></Snippet>
      <description><![CDATA[<html xmlns:fo="http://www.w3.org/1999/XSL/Format" xmlns:msxsl="urn:schemas-microsoft-com:xslt">
<head>
<META http-equiv="Content-Type" content="text/html">
<meta http-equiv="content-type" content="text/html; charset=UTF-8">
</head>
<body style="margin:0px 0px 0px 0px;overflow:auto;background:#FFFFFF;">
<table style="font-family:Arial,Verdana,Times;font-size:12px;text-align:left;width:100%;border-collapse:collapse;padding:3px 3px 3px 3px">
<tr style="text-align:center;font-weight:bold;background:#9CBCE2">
<td> </td>
</tr>
<tr>
<td>
<table style="font-family:Arial,Verdana,Times;font-size:12px;text-align:left;width:100%;border-spacing:0px; padding:3px 3px 3px 3px">
<tr>
<td>FID</td>
<td>10</td>
</tr>
<tr bgcolor="#D4E4F3">
<td>FID_jardin</td>
<td>-1</td>
</tr>
<tr>
<td>Nombre</td>
<td></td>
</tr>
<tr bgcolor="#D4E4F3">
<td>FID_jard_1</td>
<td>-1</td>
</tr>
<tr>
<td>Nombre_1</td>
<td></td>
</tr>
<tr bgcolor="#D4E4F3">
<td>FID_costad</td>
<td>-1</td>
</tr>
<tr>
<td>Nombre_12</td>
<td></td>
</tr>
<tr bgcolor="#D4E4F3">
<td>FID_cost_1</td>
<td>-1</td>
</tr>
<tr>
<td>Nombre__13</td>
<td></td>
</tr>
<tr bgcolor="#D4E4F3">
<td>FID_jard_2</td>
<td>-1</td>
</tr>
<tr>
<td>Nombre__14</td>
<td></td>
</tr>
<tr bgcolor="#D4E4F3">
<td>FID_jard_3</td>
<td>-1</td>
</tr>
<tr>
<td>Nombre__15</td>
<td></td>
</tr>
<tr bgcolor="#D4E4F3">
<td>FID_jard_4</td>
<td>0</td>
</tr>
<tr>
<td>Nombre__16</td>
<td>Jardin_corredor_65_y_caseta</td>
</tr>
<tr bgcolor="#D4E4F3">
<td>FID_Patio_</td>
<td>-1</td>
</tr>
<tr>
<td>Nombre__17</td>
<td></td>
</tr>
<tr bgcolor="#D4E4F3">
<td>FID_Planta</td>
<td>-1</td>
</tr>
<tr>
<td>Nombre__18</td>
<td></td>
</tr>
<tr bgcolor="#D4E4F3">
<td>FID_jard_5</td>
<td>-1</td>
</tr>
<tr>
<td>Nombre__19</td>
<td></td>
</tr>
<tr bgcolor="#D4E4F3">
<td>FID_Empedr</td>
<td>-1</td>
</tr>
<tr>
<td>Nombre__20</td>
<td></td>
</tr>
<tr bgcolor="#D4E4F3">
<td>FID_Jard_6</td>
<td>-1</td>
</tr>
<tr>
<td>Nombre__21</td>
<td></td>
</tr>
<tr bgcolor="#D4E4F3">
<td>FID_Jard_7</td>
<td>-1</td>
</tr>
<tr>
<td>Nombre__22</td>
<td></td>
</tr>
<tr bgcolor="#D4E4F3">
<td>FID_Jard_8</td>
<td>-1</td>
</tr>
<tr>
<td>Nombre__23</td>
<td></td>
</tr>
<tr bgcolor="#D4E4F3">
<td>FID_jard_9</td>
<td>-1</td>
</tr>
<tr>
<td>Nombre__24</td>
<td></td>
</tr>
<tr bgcolor="#D4E4F3">
<td>FID_jar_10</td>
<td>-1</td>
</tr>
<tr>
<td>Nombre__25</td>
<td></td>
</tr>
<tr bgcolor="#D4E4F3">
<td>Turno</td>
<td>8</td>
</tr>
</table>
</td>
</tr>
</table>
</body>
</html>
]]></description>
      <styleUrl>#PolyStyle00</styleUrl>
      <MultiGeometry>
        <Polygon>
          <extrude>0</extrude><altitudeMode>clampToGround</altitudeMode>
          <outerBoundaryIs><LinearRing><coordinates> -101.4100985388893,26.22433526967136,0 -101.4101329145593,26.22438135003156,0 -101.4103505642652,26.2242456235497,0 -101.4103583388381,26.22419811831172,0 -101.4100985388893,26.22433526967136,0</coordinates></LinearRing></outerBoundaryIs>
        </Polygon>
      </MultiGeometry>
    </Placemark>
    <Placemark id="ID_00011">
      <name> </name>
      <Snippet></Snippet>
      <description><![CDATA[<html xmlns:fo="http://www.w3.org/1999/XSL/Format" xmlns:msxsl="urn:schemas-microsoft-com:xslt">
<head>
<META http-equiv="Content-Type" content="text/html">
<meta http-equiv="content-type" content="text/html; charset=UTF-8">
</head>
<body style="margin:0px 0px 0px 0px;overflow:auto;background:#FFFFFF;">
<table style="font-family:Arial,Verdana,Times;font-size:12px;text-align:left;width:100%;border-collapse:collapse;padding:3px 3px 3px 3px">
<tr style="text-align:center;font-weight:bold;background:#9CBCE2">
<td> </td>
</tr>
<tr>
<td>
<table style="font-family:Arial,Verdana,Times;font-size:12px;text-align:left;width:100%;border-spacing:0px; padding:3px 3px 3px 3px">
<tr>
<td>FID</td>
<td>11</td>
</tr>
<tr bgcolor="#D4E4F3">
<td>FID_jardin</td>
<td>-1</td>
</tr>
<tr>
<td>Nombre</td>
<td></td>
</tr>
<tr bgcolor="#D4E4F3">
<td>FID_jard_1</td>
<td>-1</td>
</tr>
<tr>
<td>Nombre_1</td>
<td></td>
</tr>
<tr bgcolor="#D4E4F3">
<td>FID_costad</td>
<td>-1</td>
</tr>
<tr>
<td>Nombre_12</td>
<td></td>
</tr>
<tr bgcolor="#D4E4F3">
<td>FID_cost_1</td>
<td>-1</td>
</tr>
<tr>
<td>Nombre__13</td>
<td></td>
</tr>
<tr bgcolor="#D4E4F3">
<td>FID_jard_2</td>
<td>-1</td>
</tr>
<tr>
<td>Nombre__14</td>
<td></td>
</tr>
<tr bgcolor="#D4E4F3">
<td>FID_jard_3</td>
<td>-1</td>
</tr>
<tr>
<td>Nombre__15</td>
<td></td>
</tr>
<tr bgcolor="#D4E4F3">
<td>FID_jard_4</td>
<td>1</td>
</tr>
<tr>
<td>Nombre__16</td>
<td>Jardin_corredor_65_y_caseta</td>
</tr>
<tr bgcolor="#D4E4F3">
<td>FID_Patio_</td>
<td>-1</td>
</tr>
<tr>
<td>Nombre__17</td>
<td></td>
</tr>
<tr bgcolor="#D4E4F3">
<td>FID_Planta</td>
<td>-1</td>
</tr>
<tr>
<td>Nombre__18</td>
<td></td>
</tr>
<tr bgcolor="#D4E4F3">
<td>FID_jard_5</td>
<td>-1</td>
</tr>
<tr>
<td>Nombre__19</td>
<td></td>
</tr>
<tr bgcolor="#D4E4F3">
<td>FID_Empedr</td>
<td>-1</td>
</tr>
<tr>
<td>Nombre__20</td>
<td></td>
</tr>
<tr bgcolor="#D4E4F3">
<td>FID_Jard_6</td>
<td>-1</td>
</tr>
<tr>
<td>Nombre__21</td>
<td></td>
</tr>
<tr bgcolor="#D4E4F3">
<td>FID_Jard_7</td>
<td>-1</td>
</tr>
<tr>
<td>Nombre__22</td>
<td></td>
</tr>
<tr bgcolor="#D4E4F3">
<td>FID_Jard_8</td>
<td>-1</td>
</tr>
<tr>
<td>Nombre__23</td>
<td></td>
</tr>
<tr bgcolor="#D4E4F3">
<td>FID_jard_9</td>
<td>-1</td>
</tr>
<tr>
<td>Nombre__24</td>
<td></td>
</tr>
<tr bgcolor="#D4E4F3">
<td>FID_jar_10</td>
<td>-1</td>
</tr>
<tr>
<td>Nombre__25</td>
<td></td>
</tr>
<tr bgcolor="#D4E4F3">
<td>Turno</td>
<td>8</td>
</tr>
</table>
</td>
</tr>
</table>
</body>
</html>
]]></description>
      <styleUrl>#PolyStyle00</styleUrl>
      <MultiGeometry>
        <Polygon>
          <extrude>0</extrude><altitudeMode>clampToGround</altitudeMode>
          <outerBoundaryIs><LinearRing><coordinates> -101.4101416806136,26.22438192077991,0 -101.4101805041936,26.22441213490892,0 -101.4105282978701,26.22421967207836,0 -101.4104937628897,26.22420445989357,0 -101.4101416806136,26.22438192077991,0</coordinates></LinearRing></outerBoundaryIs>
        </Polygon>
      </MultiGeometry>
    </Placemark>
    <Placemark id="ID_00012">
      <name> </name>
      <Snippet></Snippet>
      <description><![CDATA[<html xmlns:fo="http://www.w3.org/1999/XSL/Format" xmlns:msxsl="urn:schemas-microsoft-com:xslt">
<head>
<META http-equiv="Content-Type" content="text/html">
<meta http-equiv="content-type" content="text/html; charset=UTF-8">
</head>
<body style="margin:0px 0px 0px 0px;overflow:auto;background:#FFFFFF;">
<table style="font-family:Arial,Verdana,Times;font-size:12px;text-align:left;width:100%;border-collapse:collapse;padding:3px 3px 3px 3px">
<tr style="text-align:center;font-weight:bold;background:#9CBCE2">
<td> </td>
</tr>
<tr>
<td>
<table style="font-family:Arial,Verdana,Times;font-size:12px;text-align:left;width:100%;border-spacing:0px; padding:3px 3px 3px 3px">
<tr>
<td>FID</td>
<td>12</td>
</tr>
<tr bgcolor="#D4E4F3">
<td>FID_jardin</td>
<td>-1</td>
</tr>
<tr>
<td>Nombre</td>
<td></td>
</tr>
<tr bgcolor="#D4E4F3">
<td>FID_jard_1</td>
<td>-1</td>
</tr>
<tr>
<td>Nombre_1</td>
<td></td>
</tr>
<tr bgcolor="#D4E4F3">
<td>FID_costad</td>
<td>-1</td>
</tr>
<tr>
<td>Nombre_12</td>
<td></td>
</tr>
<tr bgcolor="#D4E4F3">
<td>FID_cost_1</td>
<td>-1</td>
</tr>
<tr>
<td>Nombre__13</td>
<td></td>
</tr>
<tr bgcolor="#D4E4F3">
<td>FID_jard_2</td>
<td>-1</td>
</tr>
<tr>
<td>Nombre__14</td>
<td></td>
</tr>
<tr bgcolor="#D4E4F3">
<td>FID_jard_3</td>
<td>-1</td>
</tr>
<tr>
<td>Nombre__15</td>
<td></td>
</tr>
<tr bgcolor="#D4E4F3">
<td>FID_jard_4</td>
<td>-1</td>
</tr>
<tr>
<td>Nombre__16</td>
<td></td>
</tr>
<tr bgcolor="#D4E4F3">
<td>FID_Patio_</td>
<td>0</td>
</tr>
<tr>
<td>Nombre__17</td>
<td>Patio_de_maniobras</td>
</tr>
<tr bgcolor="#D4E4F3">
<td>FID_Planta</td>
<td>-1</td>
</tr>
<tr>
<td>Nombre__18</td>
<td></td>
</tr>
<tr bgcolor="#D4E4F3">
<td>FID_jard_5</td>
<td>-1</td>
</tr>
<tr>
<td>Nombre__19</td>
<td></td>
</tr>
<tr bgcolor="#D4E4F3">
<td>FID_Empedr</td>
<td>-1</td>
</tr>
<tr>
<td>Nombre__20</td>
<td></td>
</tr>
<tr bgcolor="#D4E4F3">
<td>FID_Jard_6</td>
<td>-1</td>
</tr>
<tr>
<td>Nombre__21</td>
<td></td>
</tr>
<tr bgcolor="#D4E4F3">
<td>FID_Jard_7</td>
<td>-1</td>
</tr>
<tr>
<td>Nombre__22</td>
<td></td>
</tr>
<tr bgcolor="#D4E4F3">
<td>FID_Jard_8</td>
<td>-1</td>
</tr>
<tr>
<td>Nombre__23</td>
<td></td>
</tr>
<tr bgcolor="#D4E4F3">
<td>FID_jard_9</td>
<td>-1</td>
</tr>
<tr>
<td>Nombre__24</td>
<td></td>
</tr>
<tr bgcolor="#D4E4F3">
<td>FID_jar_10</td>
<td>-1</td>
</tr>
<tr>
<td>Nombre__25</td>
<td></td>
</tr>
<tr bgcolor="#D4E4F3">
<td>Turno</td>
<td>9</td>
</tr>
</table>
</td>
</tr>
</table>
</body>
</html>
]]></description>
      <styleUrl>#PolyStyle00</styleUrl>
      <MultiGeometry>
        <Polygon>
          <extrude>0</extrude><altitudeMode>clampToGround</altitudeMode>
          <outerBoundaryIs><LinearRing><coordinates> -101.4098854427883,26.22415149830093,0 -101.4099963362092,26.2243190390643,0 -101.4100571510954,26.22429648492855,0 -101.4099452845025,26.22412034693596,0 -101.4098854427883,26.22415149830093,0</coordinates></LinearRing></outerBoundaryIs>
        </Polygon>
      </MultiGeometry>
    </Placemark>
    <Placemark id="ID_00013">
      <name> </name>
      <Snippet></Snippet>
      <description><![CDATA[<html xmlns:fo="http://www.w3.org/1999/XSL/Format" xmlns:msxsl="urn:schemas-microsoft-com:xslt">
<head>
<META http-equiv="Content-Type" content="text/html">
<meta http-equiv="content-type" content="text/html; charset=UTF-8">
</head>
<body style="margin:0px 0px 0px 0px;overflow:auto;background:#FFFFFF;">
<table style="font-family:Arial,Verdana,Times;font-size:12px;text-align:left;width:100%;border-collapse:collapse;padding:3px 3px 3px 3px">
<tr style="text-align:center;font-weight:bold;background:#9CBCE2">
<td> </td>
</tr>
<tr>
<td>
<table style="font-family:Arial,Verdana,Times;font-size:12px;text-align:left;width:100%;border-spacing:0px; padding:3px 3px 3px 3px">
<tr>
<td>FID</td>
<td>13</td>
</tr>
<tr bgcolor="#D4E4F3">
<td>FID_jardin</td>
<td>-1</td>
</tr>
<tr>
<td>Nombre</td>
<td></td>
</tr>
<tr bgcolor="#D4E4F3">
<td>FID_jard_1</td>
<td>-1</td>
</tr>
<tr>
<td>Nombre_1</td>
<td></td>
</tr>
<tr bgcolor="#D4E4F3">
<td>FID_costad</td>
<td>-1</td>
</tr>
<tr>
<td>Nombre_12</td>
<td></td>
</tr>
<tr bgcolor="#D4E4F3">
<td>FID_cost_1</td>
<td>-1</td>
</tr>
<tr>
<td>Nombre__13</td>
<td></td>
</tr>
<tr bgcolor="#D4E4F3">
<td>FID_jard_2</td>
<td>-1</td>
</tr>
<tr>
<td>Nombre__14</td>
<td></td>
</tr>
<tr bgcolor="#D4E4F3">
<td>FID_jard_3</td>
<td>-1</td>
</tr>
<tr>
<td>Nombre__15</td>
<td></td>
</tr>
<tr bgcolor="#D4E4F3">
<td>FID_jard_4</td>
<td>-1</td>
</tr>
<tr>
<td>Nombre__16</td>
<td></td>
</tr>
<tr bgcolor="#D4E4F3">
<td>FID_Patio_</td>
<td>-1</td>
</tr>
<tr>
<td>Nombre__17</td>
<td></td>
</tr>
<tr bgcolor="#D4E4F3">
<td>FID_Planta</td>
<td>0</td>
</tr>
<tr>
<td>Nombre__18</td>
<td>Plantacion_66</td>
</tr>
<tr bgcolor="#D4E4F3">
<td>FID_jard_5</td>
<td>-1</td>
</tr>
<tr>
<td>Nombre__19</td>
<td></td>
</tr>
<tr bgcolor="#D4E4F3">
<td>FID_Empedr</td>
<td>-1</td>
</tr>
<tr>
<td>Nombre__20</td>
<td></td>
</tr>
<tr bgcolor="#D4E4F3">
<td>FID_Jard_6</td>
<td>-1</td>
</tr>
<tr>
<td>Nombre__21</td>
<td></td>
</tr>
<tr bgcolor="#D4E4F3">
<td>FID_Jard_7</td>
<td>-1</td>
</tr>
<tr>
<td>Nombre__22</td>
<td></td>
</tr>
<tr bgcolor="#D4E4F3">
<td>FID_Jard_8</td>
<td>-1</td>
</tr>
<tr>
<td>Nombre__23</td>
<td></td>
</tr>
<tr bgcolor="#D4E4F3">
<td>FID_jard_9</td>
<td>-1</td>
</tr>
<tr>
<td>Nombre__24</td>
<td></td>
</tr>
<tr bgcolor="#D4E4F3">
<td>FID_jar_10</td>
<td>-1</td>
</tr>
<tr>
<td>Nombre__25</td>
<td></td>
</tr>
<tr bgcolor="#D4E4F3">
<td>Turno</td>
<td>10</td>
</tr>
</table>
</td>
</tr>
</table>
</body>
</html>
]]></description>
      <styleUrl>#PolyStyle00</styleUrl>
      <MultiGeometry>
        <Polygon>
          <extrude>0</extrude><altitudeMode>clampToGround</altitudeMode>
          <outerBoundaryIs><LinearRing><coordinates> -101.4100811957023,26.22430469519154,0 -101.4100969147149,26.22429510010624,0 -101.4102410091694,26.22422018506082,0 -101.4101886723217,26.22415215422738,0 -101.4101498818823,26.22416213634954,0 -101.4098595960027,26.22374709246947,0 -101.4097116982264,26.22379192329208,0 -101.4100811957023,26.22430469519154,0</coordinates></LinearRing></outerBoundaryIs>
        </Polygon>
      </MultiGeometry>
    </Placemark>
    <Placemark id="ID_00014">
      <name> </name>
      <Snippet></Snippet>
      <description><![CDATA[<html xmlns:fo="http://www.w3.org/1999/XSL/Format" xmlns:msxsl="urn:schemas-microsoft-com:xslt">
<head>
<META http-equiv="Content-Type" content="text/html">
<meta http-equiv="content-type" content="text/html; charset=UTF-8">
</head>
<body style="margin:0px 0px 0px 0px;overflow:auto;background:#FFFFFF;">
<table style="font-family:Arial,Verdana,Times;font-size:12px;text-align:left;width:100%;border-collapse:collapse;padding:3px 3px 3px 3px">
<tr style="text-align:center;font-weight:bold;background:#9CBCE2">
<td> </td>
</tr>
<tr>
<td>
<table style="font-family:Arial,Verdana,Times;font-size:12px;text-align:left;width:100%;border-spacing:0px; padding:3px 3px 3px 3px">
<tr>
<td>FID</td>
<td>14</td>
</tr>
<tr bgcolor="#D4E4F3">
<td>FID_jardin</td>
<td>-1</td>
</tr>
<tr>
<td>Nombre</td>
<td></td>
</tr>
<tr bgcolor="#D4E4F3">
<td>FID_jard_1</td>
<td>-1</td>
</tr>
<tr>
<td>Nombre_1</td>
<td></td>
</tr>
<tr bgcolor="#D4E4F3">
<td>FID_costad</td>
<td>-1</td>
</tr>
<tr>
<td>Nombre_12</td>
<td></td>
</tr>
<tr bgcolor="#D4E4F3">
<td>FID_cost_1</td>
<td>-1</td>
</tr>
<tr>
<td>Nombre__13</td>
<td></td>
</tr>
<tr bgcolor="#D4E4F3">
<td>FID_jard_2</td>
<td>-1</td>
</tr>
<tr>
<td>Nombre__14</td>
<td></td>
</tr>
<tr bgcolor="#D4E4F3">
<td>FID_jard_3</td>
<td>-1</td>
</tr>
<tr>
<td>Nombre__15</td>
<td></td>
</tr>
<tr bgcolor="#D4E4F3">
<td>FID_jard_4</td>
<td>-1</td>
</tr>
<tr>
<td>Nombre__16</td>
<td></td>
</tr>
<tr bgcolor="#D4E4F3">
<td>FID_Patio_</td>
<td>-1</td>
</tr>
<tr>
<td>Nombre__17</td>
<td></td>
</tr>
<tr bgcolor="#D4E4F3">
<td>FID_Planta</td>
<td>-1</td>
</tr>
<tr>
<td>Nombre__18</td>
<td></td>
</tr>
<tr bgcolor="#D4E4F3">
<td>FID_jard_5</td>
<td>0</td>
</tr>
<tr>
<td>Nombre__19</td>
<td>Jardin_66</td>
</tr>
<tr bgcolor="#D4E4F3">
<td>FID_Empedr</td>
<td>-1</td>
</tr>
<tr>
<td>Nombre__20</td>
<td></td>
</tr>
<tr bgcolor="#D4E4F3">
<td>FID_Jard_6</td>
<td>-1</td>
</tr>
<tr>
<td>Nombre__21</td>
<td></td>
</tr>
<tr bgcolor="#D4E4F3">
<td>FID_Jard_7</td>
<td>-1</td>
</tr>
<tr>
<td>Nombre__22</td>
<td></td>
</tr>
<tr bgcolor="#D4E4F3">
<td>FID_Jard_8</td>
<td>-1</td>
</tr>
<tr>
<td>Nombre__23</td>
<td></td>
</tr>
<tr bgcolor="#D4E4F3">
<td>FID_jard_9</td>
<td>-1</td>
</tr>
<tr>
<td>Nombre__24</td>
<td></td>
</tr>
<tr bgcolor="#D4E4F3">
<td>FID_jar_10</td>
<td>-1</td>
</tr>
<tr>
<td>Nombre__25</td>
<td></td>
</tr>
<tr bgcolor="#D4E4F3">
<td>Turno</td>
<td>11</td>
</tr>
</table>
</td>
</tr>
</table>
</body>
</html>
]]></description>
      <styleUrl>#PolyStyle00</styleUrl>
      <MultiGeometry>
        <Polygon>
          <extrude>0</extrude><altitudeMode>clampToGround</altitudeMode>
          <outerBoundaryIs><LinearRing><coordinates> -101.4102503531441,26.22409441328194,0 -101.4103580985426,26.22414787633519,0 -101.4103730811353,26.22414116477681,0 -101.4103173844148,26.22406457675773,0 -101.4102503531441,26.22409441328194,0</coordinates></LinearRing></outerBoundaryIs>
        </Polygon>
      </MultiGeometry>
    </Placemark>
    <Placemark id="ID_00015">
      <name> </name>
      <Snippet></Snippet>
      <description><![CDATA[<html xmlns:fo="http://www.w3.org/1999/XSL/Format" xmlns:msxsl="urn:schemas-microsoft-com:xslt">
<head>
<META http-equiv="Content-Type" content="text/html">
<meta http-equiv="content-type" content="text/html; charset=UTF-8">
</head>
<body style="margin:0px 0px 0px 0px;overflow:auto;background:#FFFFFF;">
<table style="font-family:Arial,Verdana,Times;font-size:12px;text-align:left;width:100%;border-collapse:collapse;padding:3px 3px 3px 3px">
<tr style="text-align:center;font-weight:bold;background:#9CBCE2">
<td> </td>
</tr>
<tr>
<td>
<table style="font-family:Arial,Verdana,Times;font-size:12px;text-align:left;width:100%;border-spacing:0px; padding:3px 3px 3px 3px">
<tr>
<td>FID</td>
<td>15</td>
</tr>
<tr bgcolor="#D4E4F3">
<td>FID_jardin</td>
<td>-1</td>
</tr>
<tr>
<td>Nombre</td>
<td></td>
</tr>
<tr bgcolor="#D4E4F3">
<td>FID_jard_1</td>
<td>-1</td>
</tr>
<tr>
<td>Nombre_1</td>
<td></td>
</tr>
<tr bgcolor="#D4E4F3">
<td>FID_costad</td>
<td>-1</td>
</tr>
<tr>
<td>Nombre_12</td>
<td></td>
</tr>
<tr bgcolor="#D4E4F3">
<td>FID_cost_1</td>
<td>-1</td>
</tr>
<tr>
<td>Nombre__13</td>
<td></td>
</tr>
<tr bgcolor="#D4E4F3">
<td>FID_jard_2</td>
<td>-1</td>
</tr>
<tr>
<td>Nombre__14</td>
<td></td>
</tr>
<tr bgcolor="#D4E4F3">
<td>FID_jard_3</td>
<td>-1</td>
</tr>
<tr>
<td>Nombre__15</td>
<td></td>
</tr>
<tr bgcolor="#D4E4F3">
<td>FID_jard_4</td>
<td>-1</td>
</tr>
<tr>
<td>Nombre__16</td>
<td></td>
</tr>
<tr bgcolor="#D4E4F3">
<td>FID_Patio_</td>
<td>-1</td>
</tr>
<tr>
<td>Nombre__17</td>
<td></td>
</tr>
<tr bgcolor="#D4E4F3">
<td>FID_Planta</td>
<td>-1</td>
</tr>
<tr>
<td>Nombre__18</td>
<td></td>
</tr>
<tr bgcolor="#D4E4F3">
<td>FID_jard_5</td>
<td>1</td>
</tr>
<tr>
<td>Nombre__19</td>
<td>Jardin_66</td>
</tr>
<tr bgcolor="#D4E4F3">
<td>FID_Empedr</td>
<td>-1</td>
</tr>
<tr>
<td>Nombre__20</td>
<td></td>
</tr>
<tr bgcolor="#D4E4F3">
<td>FID_Jard_6</td>
<td>-1</td>
</tr>
<tr>
<td>Nombre__21</td>
<td></td>
</tr>
<tr bgcolor="#D4E4F3">
<td>FID_Jard_7</td>
<td>-1</td>
</tr>
<tr>
<td>Nombre__22</td>
<td></td>
</tr>
<tr bgcolor="#D4E4F3">
<td>FID_Jard_8</td>
<td>-1</td>
</tr>
<tr>
<td>Nombre__23</td>
<td></td>
</tr>
<tr bgcolor="#D4E4F3">
<td>FID_jard_9</td>
<td>-1</td>
</tr>
<tr>
<td>Nombre__24</td>
<td></td>
</tr>
<tr bgcolor="#D4E4F3">
<td>FID_jar_10</td>
<td>-1</td>
</tr>
<tr>
<td>Nombre__25</td>
<td></td>
</tr>
<tr bgcolor="#D4E4F3">
<td>Turno</td>
<td>11</td>
</tr>
</table>
</td>
</tr>
</table>
</body>
</html>
]]></description>
      <styleUrl>#PolyStyle00</styleUrl>
      <MultiGeometry>
        <Polygon>
          <extrude>0</extrude><altitudeMode>clampToGround</altitudeMode>
          <outerBoundaryIs><LinearRing><coordinates> -101.4101860363619,26.22412964929869,0 -101.4102375901413,26.22420875761527,0 -101.4103290177062,26.22416559141201,0 -101.4102244903235,26.22410660538244,0 -101.4101860363619,26.22412964929869,0</coordinates></LinearRing></outerBoundaryIs>
        </Polygon>
      </MultiGeometry>
    </Placemark>
    <Placemark id="ID_00016">
      <name> </name>
      <Snippet></Snippet>
      <description><![CDATA[<html xmlns:fo="http://www.w3.org/1999/XSL/Format" xmlns:msxsl="urn:schemas-microsoft-com:xslt">
<head>
<META http-equiv="Content-Type" content="text/html">
<meta http-equiv="content-type" content="text/html; charset=UTF-8">
</head>
<body style="margin:0px 0px 0px 0px;overflow:auto;background:#FFFFFF;">
<table style="font-family:Arial,Verdana,Times;font-size:12px;text-align:left;width:100%;border-collapse:collapse;padding:3px 3px 3px 3px">
<tr style="text-align:center;font-weight:bold;background:#9CBCE2">
<td> </td>
</tr>
<tr>
<td>
<table style="font-family:Arial,Verdana,Times;font-size:12px;text-align:left;width:100%;border-spacing:0px; padding:3px 3px 3px 3px">
<tr>
<td>FID</td>
<td>16</td>
</tr>
<tr bgcolor="#D4E4F3">
<td>FID_jardin</td>
<td>-1</td>
</tr>
<tr>
<td>Nombre</td>
<td></td>
</tr>
<tr bgcolor="#D4E4F3">
<td>FID_jard_1</td>
<td>-1</td>
</tr>
<tr>
<td>Nombre_1</td>
<td></td>
</tr>
<tr bgcolor="#D4E4F3">
<td>FID_costad</td>
<td>-1</td>
</tr>
<tr>
<td>Nombre_12</td>
<td></td>
</tr>
<tr bgcolor="#D4E4F3">
<td>FID_cost_1</td>
<td>-1</td>
</tr>
<tr>
<td>Nombre__13</td>
<td></td>
</tr>
<tr bgcolor="#D4E4F3">
<td>FID_jard_2</td>
<td>-1</td>
</tr>
<tr>
<td>Nombre__14</td>
<td></td>
</tr>
<tr bgcolor="#D4E4F3">
<td>FID_jard_3</td>
<td>-1</td>
</tr>
<tr>
<td>Nombre__15</td>
<td></td>
</tr>
<tr bgcolor="#D4E4F3">
<td>FID_jard_4</td>
<td>-1</td>
</tr>
<tr>
<td>Nombre__16</td>
<td></td>
</tr>
<tr bgcolor="#D4E4F3">
<td>FID_Patio_</td>
<td>-1</td>
</tr>
<tr>
<td>Nombre__17</td>
<td></td>
</tr>
<tr bgcolor="#D4E4F3">
<td>FID_Planta</td>
<td>-1</td>
</tr>
<tr>
<td>Nombre__18</td>
<td></td>
</tr>
<tr bgcolor="#D4E4F3">
<td>FID_jard_5</td>
<td>-1</td>
</tr>
<tr>
<td>Nombre__19</td>
<td></td>
</tr>
<tr bgcolor="#D4E4F3">
<td>FID_Empedr</td>
<td>0</td>
</tr>
<tr>
<td>Nombre__20</td>
<td>Empedrado_66</td>
</tr>
<tr bgcolor="#D4E4F3">
<td>FID_Jard_6</td>
<td>-1</td>
</tr>
<tr>
<td>Nombre__21</td>
<td></td>
</tr>
<tr bgcolor="#D4E4F3">
<td>FID_Jard_7</td>
<td>-1</td>
</tr>
<tr>
<td>Nombre__22</td>
<td></td>
</tr>
<tr bgcolor="#D4E4F3">
<td>FID_Jard_8</td>
<td>-1</td>
</tr>
<tr>
<td>Nombre__23</td>
<td></td>
</tr>
<tr bgcolor="#D4E4F3">
<td>FID_jard_9</td>
<td>-1</td>
</tr>
<tr>
<td>Nombre__24</td>
<td></td>
</tr>
<tr bgcolor="#D4E4F3">
<td>FID_jar_10</td>
<td>-1</td>
</tr>
<tr>
<td>Nombre__25</td>
<td></td>
</tr>
<tr bgcolor="#D4E4F3">
<td>Turno</td>
<td>12</td>
</tr>
</table>
</td>
</tr>
</table>
</body>
</html>
]]></description>
      <styleUrl>#PolyStyle00</styleUrl>
      <MultiGeometry>
        <Polygon>
          <extrude>0</extrude><altitudeMode>clampToGround</altitudeMode>
          <outerBoundaryIs><LinearRing><coordinates> -101.4102244903235,26.22410660538244,0 -101.4102471412821,26.2240930315631,0 -101.4102332467153,26.22407531965062,0 -101.4101703116235,26.22411082982395,0 -101.410052861312,26.22393406777873,0 -101.4101543499652,26.22387709472107,0 -101.4102810695029,26.2240788241841,0 -101.4103165740505,26.22406387255249,0 -101.4101715678115,26.22382440647553,0 -101.4099992180968,26.22391845819321,0 -101.4101559504855,26.22414767854419,0 -101.4101860363619,26.22412964929869,0 -101.41018252627,26.22412426312299,0 -101.4102203139665,26.22410424861217,0 -101.4102244903235,26.22410660538244,0</coordinates></LinearRing></outerBoundaryIs>
        </Polygon>
      </MultiGeometry>
    </Placemark>
    <Placemark id="ID_00017">
      <name> </name>
      <Snippet></Snippet>
      <description><![CDATA[<html xmlns:fo="http://www.w3.org/1999/XSL/Format" xmlns:msxsl="urn:schemas-microsoft-com:xslt">
<head>
<META http-equiv="Content-Type" content="text/html">
<meta http-equiv="content-type" content="text/html; charset=UTF-8">
</head>
<body style="margin:0px 0px 0px 0px;overflow:auto;background:#FFFFFF;">
<table style="font-family:Arial,Verdana,Times;font-size:12px;text-align:left;width:100%;border-collapse:collapse;padding:3px 3px 3px 3px">
<tr style="text-align:center;font-weight:bold;background:#9CBCE2">
<td> </td>
</tr>
<tr>
<td>
<table style="font-family:Arial,Verdana,Times;font-size:12px;text-align:left;width:100%;border-spacing:0px; padding:3px 3px 3px 3px">
<tr>
<td>FID</td>
<td>17</td>
</tr>
<tr bgcolor="#D4E4F3">
<td>FID_jardin</td>
<td>-1</td>
</tr>
<tr>
<td>Nombre</td>
<td></td>
</tr>
<tr bgcolor="#D4E4F3">
<td>FID_jard_1</td>
<td>-1</td>
</tr>
<tr>
<td>Nombre_1</td>
<td></td>
</tr>
<tr bgcolor="#D4E4F3">
<td>FID_costad</td>
<td>-1</td>
</tr>
<tr>
<td>Nombre_12</td>
<td></td>
</tr>
<tr bgcolor="#D4E4F3">
<td>FID_cost_1</td>
<td>-1</td>
</tr>
<tr>
<td>Nombre__13</td>
<td></td>
</tr>
<tr bgcolor="#D4E4F3">
<td>FID_jard_2</td>
<td>-1</td>
</tr>
<tr>
<td>Nombre__14</td>
<td></td>
</tr>
<tr bgcolor="#D4E4F3">
<td>FID_jard_3</td>
<td>-1</td>
</tr>
<tr>
<td>Nombre__15</td>
<td></td>
</tr>
<tr bgcolor="#D4E4F3">
<td>FID_jard_4</td>
<td>-1</td>
</tr>
<tr>
<td>Nombre__16</td>
<td></td>
</tr>
<tr bgcolor="#D4E4F3">
<td>FID_Patio_</td>
<td>-1</td>
</tr>
<tr>
<td>Nombre__17</td>
<td></td>
</tr>
<tr bgcolor="#D4E4F3">
<td>FID_Planta</td>
<td>-1</td>
</tr>
<tr>
<td>Nombre__18</td>
<td></td>
</tr>
<tr bgcolor="#D4E4F3">
<td>FID_jard_5</td>
<td>-1</td>
</tr>
<tr>
<td>Nombre__19</td>
<td></td>
</tr>
<tr bgcolor="#D4E4F3">
<td>FID_Empedr</td>
<td>-1</td>
</tr>
<tr>
<td>Nombre__20</td>
<td></td>
</tr>
<tr bgcolor="#D4E4F3">
<td>FID_Jard_6</td>
<td>0</td>
</tr>
<tr>
<td>Nombre__21</td>
<td>Jardin_Insumos</td>
</tr>
<tr bgcolor="#D4E4F3">
<td>FID_Jard_7</td>
<td>-1</td>
</tr>
<tr>
<td>Nombre__22</td>
<td></td>
</tr>
<tr bgcolor="#D4E4F3">
<td>FID_Jard_8</td>
<td>-1</td>
</tr>
<tr>
<td>Nombre__23</td>
<td></td>
</tr>
<tr bgcolor="#D4E4F3">
<td>FID_jard_9</td>
<td>-1</td>
</tr>
<tr>
<td>Nombre__24</td>
<td></td>
</tr>
<tr bgcolor="#D4E4F3">
<td>FID_jar_10</td>
<td>-1</td>
</tr>
<tr>
<td>Nombre__25</td>
<td></td>
</tr>
<tr bgcolor="#D4E4F3">
<td>Turno</td>
<td>13</td>
</tr>
</table>
</td>
</tr>
</table>
</body>
</html>
]]></description>
      <styleUrl>#PolyStyle00</styleUrl>
      <MultiGeometry>
        <Polygon>
          <extrude>0</extrude><altitudeMode>clampToGround</altitudeMode>
          <outerBoundaryIs><LinearRing><coordinates> -101.4103269814183,26.22364234926827,0 -101.4103659344447,26.22364026018157,0 -101.4103689363624,26.22343850797503,0 -101.4103346975875,26.22343764677161,0 -101.4103269814183,26.22364234926827,0</coordinates></LinearRing></outerBoundaryIs>
        </Polygon>
      </MultiGeometry>
    </Placemark>
    <Placemark id="ID_00018">
      <name> </name>
      <Snippet></Snippet>
      <description><![CDATA[<html xmlns:fo="http://www.w3.org/1999/XSL/Format" xmlns:msxsl="urn:schemas-microsoft-com:xslt">
<head>
<META http-equiv="Content-Type" content="text/html">
<meta http-equiv="content-type" content="text/html; charset=UTF-8">
</head>
<body style="margin:0px 0px 0px 0px;overflow:auto;background:#FFFFFF;">
<table style="font-family:Arial,Verdana,Times;font-size:12px;text-align:left;width:100%;border-collapse:collapse;padding:3px 3px 3px 3px">
<tr style="text-align:center;font-weight:bold;background:#9CBCE2">
<td> </td>
</tr>
<tr>
<td>
<table style="font-family:Arial,Verdana,Times;font-size:12px;text-align:left;width:100%;border-spacing:0px; padding:3px 3px 3px 3px">
<tr>
<td>FID</td>
<td>18</td>
</tr>
<tr bgcolor="#D4E4F3">
<td>FID_jardin</td>
<td>-1</td>
</tr>
<tr>
<td>Nombre</td>
<td></td>
</tr>
<tr bgcolor="#D4E4F3">
<td>FID_jard_1</td>
<td>-1</td>
</tr>
<tr>
<td>Nombre_1</td>
<td></td>
</tr>
<tr bgcolor="#D4E4F3">
<td>FID_costad</td>
<td>-1</td>
</tr>
<tr>
<td>Nombre_12</td>
<td></td>
</tr>
<tr bgcolor="#D4E4F3">
<td>FID_cost_1</td>
<td>-1</td>
</tr>
<tr>
<td>Nombre__13</td>
<td></td>
</tr>
<tr bgcolor="#D4E4F3">
<td>FID_jard_2</td>
<td>-1</td>
</tr>
<tr>
<td>Nombre__14</td>
<td></td>
</tr>
<tr bgcolor="#D4E4F3">
<td>FID_jard_3</td>
<td>-1</td>
</tr>
<tr>
<td>Nombre__15</td>
<td></td>
</tr>
<tr bgcolor="#D4E4F3">
<td>FID_jard_4</td>
<td>-1</td>
</tr>
<tr>
<td>Nombre__16</td>
<td></td>
</tr>
<tr bgcolor="#D4E4F3">
<td>FID_Patio_</td>
<td>-1</td>
</tr>
<tr>
<td>Nombre__17</td>
<td></td>
</tr>
<tr bgcolor="#D4E4F3">
<td>FID_Planta</td>
<td>-1</td>
</tr>
<tr>
<td>Nombre__18</td>
<td></td>
</tr>
<tr bgcolor="#D4E4F3">
<td>FID_jard_5</td>
<td>-1</td>
</tr>
<tr>
<td>Nombre__19</td>
<td></td>
</tr>
<tr bgcolor="#D4E4F3">
<td>FID_Empedr</td>
<td>-1</td>
</tr>
<tr>
<td>Nombre__20</td>
<td></td>
</tr>
<tr bgcolor="#D4E4F3">
<td>FID_Jard_6</td>
<td>1</td>
</tr>
<tr>
<td>Nombre__21</td>
<td>Jardin_Insumos</td>
</tr>
<tr bgcolor="#D4E4F3">
<td>FID_Jard_7</td>
<td>-1</td>
</tr>
<tr>
<td>Nombre__22</td>
<td></td>
</tr>
<tr bgcolor="#D4E4F3">
<td>FID_Jard_8</td>
<td>-1</td>
</tr>
<tr>
<td>Nombre__23</td>
<td></td>
</tr>
<tr bgcolor="#D4E4F3">
<td>FID_jard_9</td>
<td>-1</td>
</tr>
<tr>
<td>Nombre__24</td>
<td></td>
</tr>
<tr bgcolor="#D4E4F3">
<td>FID_jar_10</td>
<td>-1</td>
</tr>
<tr>
<td>Nombre__25</td>
<td></td>
</tr>
<tr bgcolor="#D4E4F3">
<td>Turno</td>
<td>13</td>
</tr>
</table>
</td>
</tr>
</table>
</body>
</html>
]]></description>
      <styleUrl>#PolyStyle00</styleUrl>
      <MultiGeometry>
        <Polygon>
          <extrude>0</extrude><altitudeMode>clampToGround</altitudeMode>
          <outerBoundaryIs><LinearRing><coordinates> -101.410252834699,26.22367445855236,0 -101.4102489343414,26.22371687419431,0 -101.4102982001361,26.22371317652085,0 -101.4102965907175,26.22367372451095,0 -101.410252834699,26.22367445855236,0</coordinates></LinearRing></outerBoundaryIs>
        </Polygon>
      </MultiGeometry>
    </Placemark>
    <Placemark id="ID_00019">
      <name> </name>
      <Snippet></Snippet>
      <description><![CDATA[<html xmlns:fo="http://www.w3.org/1999/XSL/Format" xmlns:msxsl="urn:schemas-microsoft-com:xslt">
<head>
<META http-equiv="Content-Type" content="text/html">
<meta http-equiv="content-type" content="text/html; charset=UTF-8">
</head>
<body style="margin:0px 0px 0px 0px;overflow:auto;background:#FFFFFF;">
<table style="font-family:Arial,Verdana,Times;font-size:12px;text-align:left;width:100%;border-collapse:collapse;padding:3px 3px 3px 3px">
<tr style="text-align:center;font-weight:bold;background:#9CBCE2">
<td> </td>
</tr>
<tr>
<td>
<table style="font-family:Arial,Verdana,Times;font-size:12px;text-align:left;width:100%;border-spacing:0px; padding:3px 3px 3px 3px">
<tr>
<td>FID</td>
<td>19</td>
</tr>
<tr bgcolor="#D4E4F3">
<td>FID_jardin</td>
<td>-1</td>
</tr>
<tr>
<td>Nombre</td>
<td></td>
</tr>
<tr bgcolor="#D4E4F3">
<td>FID_jard_1</td>
<td>-1</td>
</tr>
<tr>
<td>Nombre_1</td>
<td></td>
</tr>
<tr bgcolor="#D4E4F3">
<td>FID_costad</td>
<td>-1</td>
</tr>
<tr>
<td>Nombre_12</td>
<td></td>
</tr>
<tr bgcolor="#D4E4F3">
<td>FID_cost_1</td>
<td>-1</td>
</tr>
<tr>
<td>Nombre__13</td>
<td></td>
</tr>
<tr bgcolor="#D4E4F3">
<td>FID_jard_2</td>
<td>-1</td>
</tr>
<tr>
<td>Nombre__14</td>
<td></td>
</tr>
<tr bgcolor="#D4E4F3">
<td>FID_jard_3</td>
<td>-1</td>
</tr>
<tr>
<td>Nombre__15</td>
<td></td>
</tr>
<tr bgcolor="#D4E4F3">
<td>FID_jard_4</td>
<td>-1</td>
</tr>
<tr>
<td>Nombre__16</td>
<td></td>
</tr>
<tr bgcolor="#D4E4F3">
<td>FID_Patio_</td>
<td>-1</td>
</tr>
<tr>
<td>Nombre__17</td>
<td></td>
</tr>
<tr bgcolor="#D4E4F3">
<td>FID_Planta</td>
<td>-1</td>
</tr>
<tr>
<td>Nombre__18</td>
<td></td>
</tr>
<tr bgcolor="#D4E4F3">
<td>FID_jard_5</td>
<td>-1</td>
</tr>
<tr>
<td>Nombre__19</td>
<td></td>
</tr>
<tr bgcolor="#D4E4F3">
<td>FID_Empedr</td>
<td>-1</td>
</tr>
<tr>
<td>Nombre__20</td>
<td></td>
</tr>
<tr bgcolor="#D4E4F3">
<td>FID_Jard_6</td>
<td>-1</td>
</tr>
<tr>
<td>Nombre__21</td>
<td></td>
</tr>
<tr bgcolor="#D4E4F3">
<td>FID_Jard_7</td>
<td>0</td>
</tr>
<tr>
<td>Nombre__22</td>
<td>Jardin_archivo_muerto_emergencias</td>
</tr>
<tr bgcolor="#D4E4F3">
<td>FID_Jard_8</td>
<td>-1</td>
</tr>
<tr>
<td>Nombre__23</td>
<td></td>
</tr>
<tr bgcolor="#D4E4F3">
<td>FID_jard_9</td>
<td>-1</td>
</tr>
<tr>
<td>Nombre__24</td>
<td></td>
</tr>
<tr bgcolor="#D4E4F3">
<td>FID_jar_10</td>
<td>-1</td>
</tr>
<tr>
<td>Nombre__25</td>
<td></td>
</tr>
<tr bgcolor="#D4E4F3">
<td>Turno</td>
<td>14</td>
</tr>
</table>
</td>
</tr>
</table>
</body>
</html>
]]></description>
      <styleUrl>#PolyStyle00</styleUrl>
      <MultiGeometry>
        <Polygon>
          <extrude>0</extrude><altitudeMode>clampToGround</altitudeMode>
          <outerBoundaryIs><LinearRing><coordinates> -101.4102470490876,26.22339389573105,0 -101.4100213643506,26.22344864533987,0 -101.4100332715972,26.22348577122257,0 -101.4103776248452,26.22339672980413,0 -101.4103706240521,26.22336598184438,0 -101.4102970363233,26.22338659696155,0 -101.4102650702546,26.22326438937841,0 -101.4103465395385,26.22324005305866,0 -101.4103444009149,26.22321353032922,0 -101.4102194125373,26.22325008149874,0 -101.4102470490876,26.22339389573105,0</coordinates></LinearRing></outerBoundaryIs>
        </Polygon>
      </MultiGeometry>
    </Placemark>
    <Placemark id="ID_00020">
      <name> </name>
      <Snippet></Snippet>
      <description><![CDATA[<html xmlns:fo="http://www.w3.org/1999/XSL/Format" xmlns:msxsl="urn:schemas-microsoft-com:xslt">
<head>
<META http-equiv="Content-Type" content="text/html">
<meta http-equiv="content-type" content="text/html; charset=UTF-8">
</head>
<body style="margin:0px 0px 0px 0px;overflow:auto;background:#FFFFFF;">
<table style="font-family:Arial,Verdana,Times;font-size:12px;text-align:left;width:100%;border-collapse:collapse;padding:3px 3px 3px 3px">
<tr style="text-align:center;font-weight:bold;background:#9CBCE2">
<td> </td>
</tr>
<tr>
<td>
<table style="font-family:Arial,Verdana,Times;font-size:12px;text-align:left;width:100%;border-spacing:0px; padding:3px 3px 3px 3px">
<tr>
<td>FID</td>
<td>20</td>
</tr>
<tr bgcolor="#D4E4F3">
<td>FID_jardin</td>
<td>-1</td>
</tr>
<tr>
<td>Nombre</td>
<td></td>
</tr>
<tr bgcolor="#D4E4F3">
<td>FID_jard_1</td>
<td>-1</td>
</tr>
<tr>
<td>Nombre_1</td>
<td></td>
</tr>
<tr bgcolor="#D4E4F3">
<td>FID_costad</td>
<td>-1</td>
</tr>
<tr>
<td>Nombre_12</td>
<td></td>
</tr>
<tr bgcolor="#D4E4F3">
<td>FID_cost_1</td>
<td>-1</td>
</tr>
<tr>
<td>Nombre__13</td>
<td></td>
</tr>
<tr bgcolor="#D4E4F3">
<td>FID_jard_2</td>
<td>-1</td>
</tr>
<tr>
<td>Nombre__14</td>
<td></td>
</tr>
<tr bgcolor="#D4E4F3">
<td>FID_jard_3</td>
<td>-1</td>
</tr>
<tr>
<td>Nombre__15</td>
<td></td>
</tr>
<tr bgcolor="#D4E4F3">
<td>FID_jard_4</td>
<td>-1</td>
</tr>
<tr>
<td>Nombre__16</td>
<td></td>
</tr>
<tr bgcolor="#D4E4F3">
<td>FID_Patio_</td>
<td>-1</td>
</tr>
<tr>
<td>Nombre__17</td>
<td></td>
</tr>
<tr bgcolor="#D4E4F3">
<td>FID_Planta</td>
<td>-1</td>
</tr>
<tr>
<td>Nombre__18</td>
<td></td>
</tr>
<tr bgcolor="#D4E4F3">
<td>FID_jard_5</td>
<td>-1</td>
</tr>
<tr>
<td>Nombre__19</td>
<td></td>
</tr>
<tr bgcolor="#D4E4F3">
<td>FID_Empedr</td>
<td>-1</td>
</tr>
<tr>
<td>Nombre__20</td>
<td></td>
</tr>
<tr bgcolor="#D4E4F3">
<td>FID_Jard_6</td>
<td>-1</td>
</tr>
<tr>
<td>Nombre__21</td>
<td></td>
</tr>
<tr bgcolor="#D4E4F3">
<td>FID_Jard_7</td>
<td>-1</td>
</tr>
<tr>
<td>Nombre__22</td>
<td></td>
</tr>
<tr bgcolor="#D4E4F3">
<td>FID_Jard_8</td>
<td>0</td>
</tr>
<tr>
<td>Nombre__23</td>
<td>Jardin_ATRP_Torre</td>
</tr>
<tr bgcolor="#D4E4F3">
<td>FID_jard_9</td>
<td>-1</td>
</tr>
<tr>
<td>Nombre__24</td>
<td></td>
</tr>
<tr bgcolor="#D4E4F3">
<td>FID_jar_10</td>
<td>-1</td>
</tr>
<tr>
<td>Nombre__25</td>
<td></td>
</tr>
<tr bgcolor="#D4E4F3">
<td>Turno</td>
<td>16</td>
</tr>
</table>
</td>
</tr>
</table>
</body>
</html>
]]></description>
      <styleUrl>#PolyStyle00</styleUrl>
      <MultiGeometry>
        <Polygon>
          <extrude>0</extrude><altitudeMode>clampToGround</altitudeMode>
          <outerBoundaryIs><LinearRing><coordinates> -101.4117749281276,26.22354196425809,0 -101.4118982603749,26.22373369983596,0 -101.4119257349102,26.22371529362391,0 -101.4118111834375,26.22352484627248,0 -101.4117749281276,26.22354196425809,0</coordinates></LinearRing></outerBoundaryIs>
        </Polygon>
      </MultiGeometry>
    </Placemark>
    <Placemark id="ID_00021">
      <name> </name>
      <Snippet></Snippet>
      <description><![CDATA[<html xmlns:fo="http://www.w3.org/1999/XSL/Format" xmlns:msxsl="urn:schemas-microsoft-com:xslt">
<head>
<META http-equiv="Content-Type" content="text/html">
<meta http-equiv="content-type" content="text/html; charset=UTF-8">
</head>
<body style="margin:0px 0px 0px 0px;overflow:auto;background:#FFFFFF;">
<table style="font-family:Arial,Verdana,Times;font-size:12px;text-align:left;width:100%;border-collapse:collapse;padding:3px 3px 3px 3px">
<tr style="text-align:center;font-weight:bold;background:#9CBCE2">
<td> </td>
</tr>
<tr>
<td>
<table style="font-family:Arial,Verdana,Times;font-size:12px;text-align:left;width:100%;border-spacing:0px; padding:3px 3px 3px 3px">
<tr>
<td>FID</td>
<td>21</td>
</tr>
<tr bgcolor="#D4E4F3">
<td>FID_jardin</td>
<td>-1</td>
</tr>
<tr>
<td>Nombre</td>
<td></td>
</tr>
<tr bgcolor="#D4E4F3">
<td>FID_jard_1</td>
<td>-1</td>
</tr>
<tr>
<td>Nombre_1</td>
<td></td>
</tr>
<tr bgcolor="#D4E4F3">
<td>FID_costad</td>
<td>-1</td>
</tr>
<tr>
<td>Nombre_12</td>
<td></td>
</tr>
<tr bgcolor="#D4E4F3">
<td>FID_cost_1</td>
<td>-1</td>
</tr>
<tr>
<td>Nombre__13</td>
<td></td>
</tr>
<tr bgcolor="#D4E4F3">
<td>FID_jard_2</td>
<td>-1</td>
</tr>
<tr>
<td>Nombre__14</td>
<td></td>
</tr>
<tr bgcolor="#D4E4F3">
<td>FID_jard_3</td>
<td>-1</td>
</tr>
<tr>
<td>Nombre__15</td>
<td></td>
</tr>
<tr bgcolor="#D4E4F3">
<td>FID_jard_4</td>
<td>-1</td>
</tr>
<tr>
<td>Nombre__16</td>
<td></td>
</tr>
<tr bgcolor="#D4E4F3">
<td>FID_Patio_</td>
<td>-1</td>
</tr>
<tr>
<td>Nombre__17</td>
<td></td>
</tr>
<tr bgcolor="#D4E4F3">
<td>FID_Planta</td>
<td>-1</td>
</tr>
<tr>
<td>Nombre__18</td>
<td></td>
</tr>
<tr bgcolor="#D4E4F3">
<td>FID_jard_5</td>
<td>-1</td>
</tr>
<tr>
<td>Nombre__19</td>
<td></td>
</tr>
<tr bgcolor="#D4E4F3">
<td>FID_Empedr</td>
<td>-1</td>
</tr>
<tr>
<td>Nombre__20</td>
<td></td>
</tr>
<tr bgcolor="#D4E4F3">
<td>FID_Jard_6</td>
<td>-1</td>
</tr>
<tr>
<td>Nombre__21</td>
<td></td>
</tr>
<tr bgcolor="#D4E4F3">
<td>FID_Jard_7</td>
<td>-1</td>
</tr>
<tr>
<td>Nombre__22</td>
<td></td>
</tr>
<tr bgcolor="#D4E4F3">
<td>FID_Jard_8</td>
<td>1</td>
</tr>
<tr>
<td>Nombre__23</td>
<td>Jardin_ATRP_Torre</td>
</tr>
<tr bgcolor="#D4E4F3">
<td>FID_jard_9</td>
<td>-1</td>
</tr>
<tr>
<td>Nombre__24</td>
<td></td>
</tr>
<tr bgcolor="#D4E4F3">
<td>FID_jar_10</td>
<td>-1</td>
</tr>
<tr>
<td>Nombre__25</td>
<td></td>
</tr>
<tr bgcolor="#D4E4F3">
<td>Turno</td>
<td>16</td>
</tr>
</table>
</td>
</tr>
</table>
</body>
</html>
]]></description>
      <styleUrl>#PolyStyle00</styleUrl>
      <MultiGeometry>
        <Polygon>
          <extrude>0</extrude><altitudeMode>clampToGround</altitudeMode>
          <outerBoundaryIs><LinearRing><coordinates> -101.4113824153945,26.22334110835599,0 -101.4113906155611,26.22342997790997,0 -101.4117156369818,26.22332977299663,0 -101.4117328876183,26.22331728083656,0 -101.4113824153945,26.22334110835599,0</coordinates></LinearRing></outerBoundaryIs>
        </Polygon>
      </MultiGeometry>
    </Placemark>
    <Placemark id="ID_00022">
      <name> </name>
      <Snippet></Snippet>
      <description><![CDATA[<html xmlns:fo="http://www.w3.org/1999/XSL/Format" xmlns:msxsl="urn:schemas-microsoft-com:xslt">
<head>
<META http-equiv="Content-Type" content="text/html">
<meta http-equiv="content-type" content="text/html; charset=UTF-8">
</head>
<body style="margin:0px 0px 0px 0px;overflow:auto;background:#FFFFFF;">
<table style="font-family:Arial,Verdana,Times;font-size:12px;text-align:left;width:100%;border-collapse:collapse;padding:3px 3px 3px 3px">
<tr style="text-align:center;font-weight:bold;background:#9CBCE2">
<td> </td>
</tr>
<tr>
<td>
<table style="font-family:Arial,Verdana,Times;font-size:12px;text-align:left;width:100%;border-spacing:0px; padding:3px 3px 3px 3px">
<tr>
<td>FID</td>
<td>22</td>
</tr>
<tr bgcolor="#D4E4F3">
<td>FID_jardin</td>
<td>-1</td>
</tr>
<tr>
<td>Nombre</td>
<td></td>
</tr>
<tr bgcolor="#D4E4F3">
<td>FID_jard_1</td>
<td>-1</td>
</tr>
<tr>
<td>Nombre_1</td>
<td></td>
</tr>
<tr bgcolor="#D4E4F3">
<td>FID_costad</td>
<td>-1</td>
</tr>
<tr>
<td>Nombre_12</td>
<td></td>
</tr>
<tr bgcolor="#D4E4F3">
<td>FID_cost_1</td>
<td>-1</td>
</tr>
<tr>
<td>Nombre__13</td>
<td></td>
</tr>
<tr bgcolor="#D4E4F3">
<td>FID_jard_2</td>
<td>-1</td>
</tr>
<tr>
<td>Nombre__14</td>
<td></td>
</tr>
<tr bgcolor="#D4E4F3">
<td>FID_jard_3</td>
<td>-1</td>
</tr>
<tr>
<td>Nombre__15</td>
<td></td>
</tr>
<tr bgcolor="#D4E4F3">
<td>FID_jard_4</td>
<td>-1</td>
</tr>
<tr>
<td>Nombre__16</td>
<td></td>
</tr>
<tr bgcolor="#D4E4F3">
<td>FID_Patio_</td>
<td>-1</td>
</tr>
<tr>
<td>Nombre__17</td>
<td></td>
</tr>
<tr bgcolor="#D4E4F3">
<td>FID_Planta</td>
<td>-1</td>
</tr>
<tr>
<td>Nombre__18</td>
<td></td>
</tr>
<tr bgcolor="#D4E4F3">
<td>FID_jard_5</td>
<td>-1</td>
</tr>
<tr>
<td>Nombre__19</td>
<td></td>
</tr>
<tr bgcolor="#D4E4F3">
<td>FID_Empedr</td>
<td>-1</td>
</tr>
<tr>
<td>Nombre__20</td>
<td></td>
</tr>
<tr bgcolor="#D4E4F3">
<td>FID_Jard_6</td>
<td>-1</td>
</tr>
<tr>
<td>Nombre__21</td>
<td></td>
</tr>
<tr bgcolor="#D4E4F3">
<td>FID_Jard_7</td>
<td>-1</td>
</tr>
<tr>
<td>Nombre__22</td>
<td></td>
</tr>
<tr bgcolor="#D4E4F3">
<td>FID_Jard_8</td>
<td>2</td>
</tr>
<tr>
<td>Nombre__23</td>
<td>Jardin_ATRP_Torre</td>
</tr>
<tr bgcolor="#D4E4F3">
<td>FID_jard_9</td>
<td>-1</td>
</tr>
<tr>
<td>Nombre__24</td>
<td></td>
</tr>
<tr bgcolor="#D4E4F3">
<td>FID_jar_10</td>
<td>-1</td>
</tr>
<tr>
<td>Nombre__25</td>
<td></td>
</tr>
<tr bgcolor="#D4E4F3">
<td>Turno</td>
<td>16</td>
</tr>
</table>
</td>
</tr>
</table>
</body>
</html>
]]></description>
      <styleUrl>#PolyStyle00</styleUrl>
      <MultiGeometry>
        <Polygon>
          <extrude>0</extrude><altitudeMode>clampToGround</altitudeMode>
          <outerBoundaryIs><LinearRing><coordinates> -101.4113801284957,26.22330741014477,0 -101.4117462749333,26.22327183473609,0 -101.4117740415448,26.22322901846301,0 -101.4113860707929,26.22320968963291,0 -101.4113801284957,26.22330741014477,0</coordinates></LinearRing></outerBoundaryIs>
        </Polygon>
      </MultiGeometry>
    </Placemark>
    <Placemark id="ID_00023">
      <name> </name>
      <Snippet></Snippet>
      <description><![CDATA[<html xmlns:fo="http://www.w3.org/1999/XSL/Format" xmlns:msxsl="urn:schemas-microsoft-com:xslt">
<head>
<META http-equiv="Content-Type" content="text/html">
<meta http-equiv="content-type" content="text/html; charset=UTF-8">
</head>
<body style="margin:0px 0px 0px 0px;overflow:auto;background:#FFFFFF;">
<table style="font-family:Arial,Verdana,Times;font-size:12px;text-align:left;width:100%;border-collapse:collapse;padding:3px 3px 3px 3px">
<tr style="text-align:center;font-weight:bold;background:#9CBCE2">
<td> </td>
</tr>
<tr>
<td>
<table style="font-family:Arial,Verdana,Times;font-size:12px;text-align:left;width:100%;border-spacing:0px; padding:3px 3px 3px 3px">
<tr>
<td>FID</td>
<td>23</td>
</tr>
<tr bgcolor="#D4E4F3">
<td>FID_jardin</td>
<td>-1</td>
</tr>
<tr>
<td>Nombre</td>
<td></td>
</tr>
<tr bgcolor="#D4E4F3">
<td>FID_jard_1</td>
<td>-1</td>
</tr>
<tr>
<td>Nombre_1</td>
<td></td>
</tr>
<tr bgcolor="#D4E4F3">
<td>FID_costad</td>
<td>-1</td>
</tr>
<tr>
<td>Nombre_12</td>
<td></td>
</tr>
<tr bgcolor="#D4E4F3">
<td>FID_cost_1</td>
<td>-1</td>
</tr>
<tr>
<td>Nombre__13</td>
<td></td>
</tr>
<tr bgcolor="#D4E4F3">
<td>FID_jard_2</td>
<td>-1</td>
</tr>
<tr>
<td>Nombre__14</td>
<td></td>
</tr>
<tr bgcolor="#D4E4F3">
<td>FID_jard_3</td>
<td>-1</td>
</tr>
<tr>
<td>Nombre__15</td>
<td></td>
</tr>
<tr bgcolor="#D4E4F3">
<td>FID_jard_4</td>
<td>-1</td>
</tr>
<tr>
<td>Nombre__16</td>
<td></td>
</tr>
<tr bgcolor="#D4E4F3">
<td>FID_Patio_</td>
<td>-1</td>
</tr>
<tr>
<td>Nombre__17</td>
<td></td>
</tr>
<tr bgcolor="#D4E4F3">
<td>FID_Planta</td>
<td>-1</td>
</tr>
<tr>
<td>Nombre__18</td>
<td></td>
</tr>
<tr bgcolor="#D4E4F3">
<td>FID_jard_5</td>
<td>-1</td>
</tr>
<tr>
<td>Nombre__19</td>
<td></td>
</tr>
<tr bgcolor="#D4E4F3">
<td>FID_Empedr</td>
<td>-1</td>
</tr>
<tr>
<td>Nombre__20</td>
<td></td>
</tr>
<tr bgcolor="#D4E4F3">
<td>FID_Jard_6</td>
<td>-1</td>
</tr>
<tr>
<td>Nombre__21</td>
<td></td>
</tr>
<tr bgcolor="#D4E4F3">
<td>FID_Jard_7</td>
<td>-1</td>
</tr>
<tr>
<td>Nombre__22</td>
<td></td>
</tr>
<tr bgcolor="#D4E4F3">
<td>FID_Jard_8</td>
<td>-1</td>
</tr>
<tr>
<td>Nombre__23</td>
<td></td>
</tr>
<tr bgcolor="#D4E4F3">
<td>FID_jard_9</td>
<td>0</td>
</tr>
<tr>
<td>Nombre__24</td>
<td>Jardin_triangulo_torre</td>
</tr>
<tr bgcolor="#D4E4F3">
<td>FID_jar_10</td>
<td>-1</td>
</tr>
<tr>
<td>Nombre__25</td>
<td></td>
</tr>
<tr bgcolor="#D4E4F3">
<td>Turno</td>
<td>15</td>
</tr>
</table>
</td>
</tr>
</table>
</body>
</html>
]]></description>
      <styleUrl>#PolyStyle00</styleUrl>
      <MultiGeometry>
        <Polygon>
          <extrude>0</extrude><altitudeMode>clampToGround</altitudeMode>
          <outerBoundaryIs><LinearRing><coordinates> -101.4107025157985,26.22393555121475,0 -101.4109036846588,26.2238056231579,0 -101.4107911051384,26.22373826649632,0 -101.4107025157985,26.22393555121475,0</coordinates></LinearRing></outerBoundaryIs>
        </Polygon>
      </MultiGeometry>
    </Placemark>
    <Placemark id="ID_00024">
      <name> </name>
      <Snippet></Snippet>
      <description><![CDATA[<html xmlns:fo="http://www.w3.org/1999/XSL/Format" xmlns:msxsl="urn:schemas-microsoft-com:xslt">
<head>
<META http-equiv="Content-Type" content="text/html">
<meta http-equiv="content-type" content="text/html; charset=UTF-8">
</head>
<body style="margin:0px 0px 0px 0px;overflow:auto;background:#FFFFFF;">
<table style="font-family:Arial,Verdana,Times;font-size:12px;text-align:left;width:100%;border-collapse:collapse;padding:3px 3px 3px 3px">
<tr style="text-align:center;font-weight:bold;background:#9CBCE2">
<td> </td>
</tr>
<tr>
<td>
<table style="font-family:Arial,Verdana,Times;font-size:12px;text-align:left;width:100%;border-spacing:0px; padding:3px 3px 3px 3px">
<tr>
<td>FID</td>
<td>24</td>
</tr>
<tr bgcolor="#D4E4F3">
<td>FID_jardin</td>
<td>-1</td>
</tr>
<tr>
<td>Nombre</td>
<td></td>
</tr>
<tr bgcolor="#D4E4F3">
<td>FID_jard_1</td>
<td>-1</td>
</tr>
<tr>
<td>Nombre_1</td>
<td></td>
</tr>
<tr bgcolor="#D4E4F3">
<td>FID_costad</td>
<td>-1</td>
</tr>
<tr>
<td>Nombre_12</td>
<td></td>
</tr>
<tr bgcolor="#D4E4F3">
<td>FID_cost_1</td>
<td>-1</td>
</tr>
<tr>
<td>Nombre__13</td>
<td></td>
</tr>
<tr bgcolor="#D4E4F3">
<td>FID_jard_2</td>
<td>-1</td>
</tr>
<tr>
<td>Nombre__14</td>
<td></td>
</tr>
<tr bgcolor="#D4E4F3">
<td>FID_jard_3</td>
<td>-1</td>
</tr>
<tr>
<td>Nombre__15</td>
<td></td>
</tr>
<tr bgcolor="#D4E4F3">
<td>FID_jard_4</td>
<td>-1</td>
</tr>
<tr>
<td>Nombre__16</td>
<td></td>
</tr>
<tr bgcolor="#D4E4F3">
<td>FID_Patio_</td>
<td>-1</td>
</tr>
<tr>
<td>Nombre__17</td>
<td></td>
</tr>
<tr bgcolor="#D4E4F3">
<td>FID_Planta</td>
<td>-1</td>
</tr>
<tr>
<td>Nombre__18</td>
<td></td>
</tr>
<tr bgcolor="#D4E4F3">
<td>FID_jard_5</td>
<td>-1</td>
</tr>
<tr>
<td>Nombre__19</td>
<td></td>
</tr>
<tr bgcolor="#D4E4F3">
<td>FID_Empedr</td>
<td>-1</td>
</tr>
<tr>
<td>Nombre__20</td>
<td></td>
</tr>
<tr bgcolor="#D4E4F3">
<td>FID_Jard_6</td>
<td>-1</td>
</tr>
<tr>
<td>Nombre__21</td>
<td></td>
</tr>
<tr bgcolor="#D4E4F3">
<td>FID_Jard_7</td>
<td>-1</td>
</tr>
<tr>
<td>Nombre__22</td>
<td></td>
</tr>
<tr bgcolor="#D4E4F3">
<td>FID_Jard_8</td>
<td>-1</td>
</tr>
<tr>
<td>Nombre__23</td>
<td></td>
</tr>
<tr bgcolor="#D4E4F3">
<td>FID_jard_9</td>
<td>-1</td>
</tr>
<tr>
<td>Nombre__24</td>
<td></td>
</tr>
<tr bgcolor="#D4E4F3">
<td>FID_jar_10</td>
<td>0</td>
</tr>
<tr>
<td>Nombre__25</td>
<td>Jardin_osmosis</td>
</tr>
<tr bgcolor="#D4E4F3">
<td>Turno</td>
<td>2</td>
</tr>
</table>
</td>
</tr>
</table>
</body>
</html>
]]></description>
      <styleUrl>#PolyStyle00</styleUrl>
      <MultiGeometry>
        <Polygon>
          <extrude>0</extrude><altitudeMode>clampToGround</altitudeMode>
          <outerBoundaryIs><LinearRing><coordinates> -101.4109611938678,26.22425619418109,0 -101.4109890868761,26.22429664070491,0 -101.4109354767203,26.22432122772621,0 -101.4109569459843,26.22435891085077,0 -101.4110148706925,26.22431199962093,0 -101.410968971921,26.22424745005978,0 -101.4109611938678,26.22425619418109,0</coordinates></LinearRing></outerBoundaryIs>
        </Polygon>
      </MultiGeometry>
    </Placemark>
    <Placemark id="ID_00025">
      <name> </name>
      <Snippet></Snippet>
      <description><![CDATA[<html xmlns:fo="http://www.w3.org/1999/XSL/Format" xmlns:msxsl="urn:schemas-microsoft-com:xslt">
<head>
<META http-equiv="Content-Type" content="text/html">
<meta http-equiv="content-type" content="text/html; charset=UTF-8">
</head>
<body style="margin:0px 0px 0px 0px;overflow:auto;background:#FFFFFF;">
<table style="font-family:Arial,Verdana,Times;font-size:12px;text-align:left;width:100%;border-collapse:collapse;padding:3px 3px 3px 3px">
<tr style="text-align:center;font-weight:bold;background:#9CBCE2">
<td> </td>
</tr>
<tr>
<td>
<table style="font-family:Arial,Verdana,Times;font-size:12px;text-align:left;width:100%;border-spacing:0px; padding:3px 3px 3px 3px">
<tr>
<td>FID</td>
<td>25</td>
</tr>
<tr bgcolor="#D4E4F3">
<td>FID_jardin</td>
<td>-1</td>
</tr>
<tr>
<td>Nombre</td>
<td></td>
</tr>
<tr bgcolor="#D4E4F3">
<td>FID_jard_1</td>
<td>-1</td>
</tr>
<tr>
<td>Nombre_1</td>
<td></td>
</tr>
<tr bgcolor="#D4E4F3">
<td>FID_costad</td>
<td>-1</td>
</tr>
<tr>
<td>Nombre_12</td>
<td></td>
</tr>
<tr bgcolor="#D4E4F3">
<td>FID_cost_1</td>
<td>-1</td>
</tr>
<tr>
<td>Nombre__13</td>
<td></td>
</tr>
<tr bgcolor="#D4E4F3">
<td>FID_jard_2</td>
<td>-1</td>
</tr>
<tr>
<td>Nombre__14</td>
<td></td>
</tr>
<tr bgcolor="#D4E4F3">
<td>FID_jard_3</td>
<td>-1</td>
</tr>
<tr>
<td>Nombre__15</td>
<td></td>
</tr>
<tr bgcolor="#D4E4F3">
<td>FID_jard_4</td>
<td>-1</td>
</tr>
<tr>
<td>Nombre__16</td>
<td></td>
</tr>
<tr bgcolor="#D4E4F3">
<td>FID_Patio_</td>
<td>-1</td>
</tr>
<tr>
<td>Nombre__17</td>
<td></td>
</tr>
<tr bgcolor="#D4E4F3">
<td>FID_Planta</td>
<td>-1</td>
</tr>
<tr>
<td>Nombre__18</td>
<td></td>
</tr>
<tr bgcolor="#D4E4F3">
<td>FID_jard_5</td>
<td>-1</td>
</tr>
<tr>
<td>Nombre__19</td>
<td></td>
</tr>
<tr bgcolor="#D4E4F3">
<td>FID_Empedr</td>
<td>-1</td>
</tr>
<tr>
<td>Nombre__20</td>
<td></td>
</tr>
<tr bgcolor="#D4E4F3">
<td>FID_Jard_6</td>
<td>-1</td>
</tr>
<tr>
<td>Nombre__21</td>
<td></td>
</tr>
<tr bgcolor="#D4E4F3">
<td>FID_Jard_7</td>
<td>-1</td>
</tr>
<tr>
<td>Nombre__22</td>
<td></td>
</tr>
<tr bgcolor="#D4E4F3">
<td>FID_Jard_8</td>
<td>-1</td>
</tr>
<tr>
<td>Nombre__23</td>
<td></td>
</tr>
<tr bgcolor="#D4E4F3">
<td>FID_jard_9</td>
<td>-1</td>
</tr>
<tr>
<td>Nombre__24</td>
<td></td>
</tr>
<tr bgcolor="#D4E4F3">
<td>FID_jar_10</td>
<td>1</td>
</tr>
<tr>
<td>Nombre__25</td>
<td>Jardin_osmosis</td>
</tr>
<tr bgcolor="#D4E4F3">
<td>Turno</td>
<td>2</td>
</tr>
</table>
</td>
</tr>
</table>
</body>
</html>
]]></description>
      <styleUrl>#PolyStyle00</styleUrl>
      <MultiGeometry>
        <Polygon>
          <extrude>0</extrude><altitudeMode>clampToGround</altitudeMode>
          <outerBoundaryIs><LinearRing><coordinates> -101.410946381473,26.2241939941517,0 -101.4110292353209,26.22431391196378,0 -101.4110416979651,26.22430078242569,0 -101.4109644870935,26.22418435892677,0 -101.410946381473,26.2241939941517,0</coordinates></LinearRing></outerBoundaryIs>
        </Polygon>
      </MultiGeometry>
    </Placemark>
  </Folder>
</Document>
</kml>